addressLine,cateringPhone,thursdayEnd,storeNumber,tuesdayStart,addressLine2,addressLine3,wednesdayEnd,city,thursdayStart,zip,onlineOrdering,wednesdayStart,saturdayEnd,state,fridayEnd,latitude,sundayEnd,mondayEnd,catering,delivery,fridayStart,buffet,saturdayStart,sundayStart,mondayStart,distance,businessPhone,wifi,longitude,tuesdayEnd
3408 Poole Road,(888) 540-0558 Ext.3031,10:00PM,029410,7:00AM,,,10:00PM,Raleigh,7:00AM,27610,False,7:00AM,11:00PM,NC,11:00PM,35.768348,9:00PM,10:00PM,True,False,7:00AM,False,7:00AM,7:00AM,7:00AM,5.406755396538383,(919)212-2504,False,-78.579871,10:00PM
1599 US Highway 70 W,(888) 540-0558 Ext.3031,10:00PM,J120099,10:30AM,,,10:00PM,Garner,10:30AM,27529,False,10:30AM,10:30PM,NC,10:30PM,35.72511,10:00PM,10:00PM,True,False,10:30AM,False,10:30AM,10:30AM,10:30AM,6.133080507041628,(919)662-1003,True,-78.64879,10:00PM
4040 Capital Blvd.,(888) 540-0558 Ext.3031,10:00PM,J120095,10:30AM,,,10:00PM,Raleigh,10:30AM,27604,False,10:30AM,10:00PM,NC,10:00PM,35.83612,10:00PM,10:00PM,True,False,10:30AM,False,10:30AM,10:30AM,10:30AM,8.105586412876418,(919)872-5356,True,-78.58143,10:00PM
5434 Six Forks Rd,(888) 540-0558 Ext.3031,10:00PM,029424,7:00AM,,,10:00PM,Raleigh,7:00AM,27609,False,7:00AM,11:00PM,NC,11:00PM,35.85553,10:00PM,10:00PM,True,False,7:00AM,False,7:00AM,7:00AM,7:00AM,8.449297817065192,(919)781-5458,False,-78.641441,10:00PM
6405 Falls Of Neuse Rd.,(888) 540-0558 Ext.3031,10:00PM,029409,7:00AM,,,10:00PM,Raleigh,7:00AM,27615,False,7:00AM,11:00PM,NC,11:00PM,35.870478,10:00PM,10:00PM,True,False,7:00AM,False,7:00AM,7:00AM,7:00AM,10.213915310256859,(919)872-6902,False,-78.621778,10:00PM
7040 Highway 64  E.,(888) 540-0558 Ext.3031,10:00PM,J120031,10:30AM,,,10:00PM,Knightdale,10:30AM,27545,False,10:30AM,10:00PM,NC,10:00PM,35.79836,10:00PM,10:00PM,True,False,10:30AM,False,10:30AM,10:30AM,10:30AM,13.18005756049314,(919)266-4096,True,-78.4939,10:00PM
1011 N Harrison Ave,(888) 540-0558 Ext.3031,10:00PM,029483,7:00AM,,,10:00PM,Cary,7:00AM,27513,False,7:00AM,10:00PM,NC,10:00PM,35.803464,10:00PM,10:00PM,True,False,7:00AM,False,7:00AM,7:00AM,7:00AM,13.363955437251617,(919)467-6318,False,-78.783392,10:00PM
809 Airport Blvd.,(888) 540-0558 Ext.3031,10:00PM,022040,7:00AM,,,10:00PM,Morrisville,7:00AM,27560,False,7:00AM,10:00PM,NC,10:00PM,35.856373,10:00PM,10:00PM,True,False,7:00AM,False,7:00AM,7:00AM,7:00AM,18.866656656305587,(919)380-8313,False,-78.824771,10:00PM
11657 Highway 70 West,(888) 540-0558 Ext.3031,10:30PM,029403,7:00AM,,,10:30PM,Clayton,7:00AM,27520,False,7:00AM,10:30PM,NC,10:30PM,35.654304,10:30PM,10:30PM,True,False,7:00AM,False,7:00AM,7:00AM,7:00AM,20.295497418582794,(919)553-2934,False,-78.474698,10:30PM
5530 North Carolina Highway 42,(888) 540-0558 Ext.3031,11:30PM,029404,7:00AM,,,11:00PM,Garner,7:00AM,27529,False,7:00AM,11:30PM,NC,11:30PM,35.605432,11:00PM,11:00PM,True,False,7:00AM,False,7:00AM,7:00AM,7:00AM,20.38410500180866,(919)773-2440,False,-78.567717,11:00PM
1403 West Williams Blvd,(888) 540-0558 Ext.3031,10:00PM,J120103,10:30AM,,,10:00PM,Apex,10:30AM,27523,False,10:30AM,10:00PM,NC,10:00PM,35.75007,10:00PM,10:00PM,True,False,10:30AM,False,10:30AM,10:30AM,10:30AM,21.781320108025263,(919)303-7997,True,-78.87683,10:00PM
7112 G. B. Alford Highway,(888) 540-0558 Ext.3031,10:00PM,029354,7:00AM,Wal-Mart Pad,,10:00PM,Holly Springs,7:00AM,27540,False,7:00AM,10:00PM,NC,10:00PM,35.635926,10:00PM,10:00PM,True,False,7:00AM,False,7:00AM,7:00AM,7:00AM,23.62272853426568,(919)557-3801,False,-78.830916,10:00PM
12313 Capital Blvd.,(888) 540-0558 Ext.3031,10:00PM,J120098,10:30AM,,,10:00PM,Wake Forest,10:30AM,27587,False,10:30AM,10:00PM,NC,10:00PM,35.98267,10:00PM,10:00PM,True,False,10:30AM,False,10:30AM,10:30AM,10:30AM,24.2834275757523,(919)556-9408,True,-78.53905,10:00PM
1804 South Miami Blvd.,(888) 540-0558 Ext.3031,10:00PM,029407,7:00AM,,,10:00PM,Durham,7:00AM,27703,False,7:00AM,10:00PM,NC,10:00PM,35.945548,10:00PM,10:00PM,True,False,7:00AM,False,7:00AM,7:00AM,7:00AM,25.810436971503787,(919)957-0745,False,-78.838428,10:00PM
161 Wakelon Drive,(888) 540-0558 Ext.3031,10:00PM,029481,7:00AM,,,10:00PM,Zebulon,7:00AM,27597,False,7:00AM,11:00PM,NC,11:00PM,35.833469,10:00PM,10:00PM,True,False,7:00AM,False,7:00AM,7:00AM,7:00AM,29.768547297365835,(919)404-1701,False,-78.314827,10:00PM
12300 State Highway 210,(888) 540-0558 Ext.3031,10:00PM,029411,7:00AM,,,10:00PM,Benson,7:00AM,27504,False,7:00AM,11:00PM,NC,11:00PM,35.517081,10:00PM,10:00PM,True,False,7:00AM,False,7:00AM,7:00AM,7:00AM,29.991663163571584,(919)209-0405,False,-78.561932,10:00PM
1110 W. NC 54,(888) 540-0558 Ext.3031,10:00PM,029412,7:00AM,,,10:00PM,Durham,7:00AM,27707,False,7:00AM,10:00PM,NC,10:00PM,35.91988,10:00PM,10:00PM,True,False,7:00AM,False,7:00AM,7:00AM,7:00AM,32.729204323796914,(919)419-9428,False,-78.957413,10:00PM
806 Fayetteville Street,(888) 540-0558 Ext.3031,10:00PM,J120101,10:30AM,,,10:00PM,Durham,10:30AM,27701,False,10:30AM,10:00PM,NC,10:00PM,35.98549,10:00PM,10:00PM,True,False,10:30AM,False,10:30AM,10:30AM,10:30AM,32.8088955431243,(919)530-8119,True,-78.89902,10:00PM
511 Horton Rd.,(888) 540-0558 Ext.3031,10:00PM,J120096,10:30AM,,,10:00PM,Durham,10:30AM,27704,False,10:30AM,10:00PM,NC,10:00PM,36.05094,10:00PM,10:00PM,True,False,10:30AM,False,10:30AM,10:30AM,10:30AM,38.49933894934922,(919)479-3044,True,-78.90371,10:00PM
3570 Hillsborough Rd,(888) 540-0558 Ext.3031,11:00PM,029406,7:00AM,,,11:00PM,Durham,7:00AM,27705,False,7:00AM,11:00PM,NC,11:00PM,36.022476,11:00PM,11:00PM,True,False,7:00AM,False,7:00AM,7:00AM,7:00AM,39.13831424532881,(919)383-0081,False,-78.952669,11:00PM
1544 Highway 56,(888) 540-0558 Ext.3031,10:00PM,029402,7:00AM,,,10:00PM,Creedmoor,7:00AM,27522,False,7:00AM,10:00PM,NC,10:00PM,36.146052,10:00PM,10:00PM,True,False,7:00AM,False,7:00AM,7:00AM,7:00AM,41.474281190712595,(919)528-1027,False,-78.723997,10:00PM
406 U.S. Highway 70 East,,10:00PM,H667015,10:30AM,,,10:00PM,Selma,10:30AM,27576,False,10:30AM,11:00PM,NC,11:00PM,35.520531,10:00PM,10:00PM,False,False,10:30AM,False,10:30AM,10:00AM,10:30AM,42.45241904973373,(919)965-9238,True,-78.293058,10:00PM
207 S. Bickett Boulevard,(919) 496-4919,9:00PM,J145004,10:30AM,,,9:00PM,Louisburg,10:30AM,27549,False,10:30AM,9:30PM,NC,9:30PM,36.092918,9:00PM,9:00PM,True,False,10:30AM,True,10:30AM,10:30AM,10:30AM,46.364567899483475,(919)496-4919,True,-78.298395,9:00PM
63 Lowes Drive,(888) 540-0558 Ext.3031,10:00PM,029482,7:00AM,,,10:00PM,Pittsboro,7:00AM,27312,False,7:00AM,10:00PM,NC,10:00PM,35.745873,10:00PM,10:00PM,True,False,7:00AM,False,7:00AM,7:00AM,7:00AM,47.84348299686336,(919)545-8999,False,-79.166797,10:00PM
1192 W. Broad Street,,10:00PM,H667009,10:30AM,,,10:00PM,Dunn,10:30AM,28334,False,10:30AM,11:00PM,NC,11:00PM,35.316309,10:00PM,10:00PM,False,False,10:30AM,True,10:30AM,10:00AM,10:30AM,51.5257570515396,(910)892-6189,True,-78.626255,10:00PM
353 S. Churton Street,(888) 540-0558 Ext.3031,10:00PM,029400,7:00AM,,,10:00PM,Hillsborough,7:00AM,27278,False,7:00AM,10:00PM,NC,10:00PM,36.06047,10:00PM,10:00PM,True,False,7:00AM,False,7:00AM,7:00AM,7:00AM,52.20082215427818,(919)732-5590,False,-79.102663,10:00PM
527 East Industry Drive,(919) 693-3424,9:30PM,J145003,10:30AM,,,9:30PM,Oxford,10:30AM,27565,False,10:30AM,10:00PM,NC,10:00PM,36.298375,9:30PM,9:30PM,True,False,10:30AM,True,10:30AM,10:30AM,10:30AM,57.88633579034487,(919)693-3424,True,-78.584702,9:30PM
704 Horner Boulevard,(888) 540-0558 Ext.3031,10:00PM,J120005,10:30AM,,,10:00PM,Sanford,10:30AM,27330,False,10:30AM,10:00PM,NC,10:00PM,35.47178,10:00PM,10:00PM,True,False,10:30AM,True,10:30AM,10:30AM,10:30AM,59.32095473819858,(919)775-5615,True,-79.17424,10:00PM
1870 Tarboro Street  W.,(252) 902-9148,10:00PM,E080052,10:00AM,,,10:00PM,Wilson,10:00AM,27893,False,10:00AM,11:00PM,NC,11:00PM,35.719794,10:00PM,10:00PM,True,False,10:00AM,False,10:00AM,10:00AM,10:00AM,62.557242872839275,(252)237-4107,True,-77.948897,10:00PM
130 Raleigh Road,(252) 492-2342,9:00PM,J145002,11:00AM,,,9:00PM,Henderson,11:00AM,27536,False,11:00AM,9:30PM,NC,9:30PM,36.321217,9:00PM,9:00PM,True,False,11:00AM,False,11:00AM,11:00AM,11:00AM,63.586620237468374,(252)492-2342,True,-78.411287,9:00PM
1553 Dabney Drive,(252) 492-2773,9:30PM,J145005,11:00AM,,,9:30PM,Henderson,11:00AM,27536,False,11:00AM,10:00PM,NC,10:00PM,36.332774,9:30PM,9:30PM,True,False,11:00AM,True,11:00AM,11:00AM,11:00AM,64.1440544645934,(252)492-2773,True,-78.435845,9:30PM
901 Highway 301,(252) 902-9103,11:00PM,E080064,10:00AM,,,11:00PM,Wilson,10:00AM,27893,False,10:00AM,12:00AM,NC,12:00AM,35.72121,11:00PM,11:00PM,True,False,10:00AM,False,10:00AM,10:00AM,10:00AM,67.56744794115,(252)399-1118,True,-77.892908,11:00PM
1738 S NC Highway 119,(888) 532-2283,10:00PM,G135192,10:30AM,,,10:00PM,Mebane,10:30AM,27302,False,10:30AM,10:00PM,NC,10:00PM,36.067699,10:00PM,10:00PM,True,False,10:30AM,True,10:30AM,10:30AM,10:30AM,67.66595686251893,(919)304-2232,True,-79.300087,10:00PM
895 NC Highway 24-87,,10:00PM,H667025,10:30AM,,,10:00PM,Cameron,10:30AM,28326,False,10:30AM,11:00PM,NC,11:00PM,35.261956,10:00PM,10:00PM,False,False,10:30AM,True,10:30AM,10:00AM,10:30AM,68.43242931990441,(919)498-1750,True,-79.047169,10:00PM
2180 Durham Road,(855) 532-8646,10:00PM,K720016,10:30AM,,,10:00PM,Roxboro,10:30AM,27573,False,10:30AM,10:00PM,NC,10:00PM,36.364802,10:00PM,10:00PM,True,False,10:30AM,False,10:30AM,10:30AM,10:30AM,72.08499345616107,(336)599-2210,True,-78.983245,10:00PM
1702 East 11th Street,(888) 540-0558 Ext.3031,10:00PM,029405,7:00AM,,,10:00PM,Siler City,7:00AM,27344,False,7:00AM,10:00PM,NC,10:00PM,35.7332,10:00PM,10:00PM,True,False,7:00AM,False,7:00AM,7:00AM,7:00AM,72.49175720263332,(919)742-4343,False,-79.439505,10:00PM
700 East Ash Street,(252) 902-9103,10:00PM,E080057,10:00AM,,,10:00PM,Goldsboro,10:00AM,27530,False,10:00AM,11:00PM,NC,11:00PM,35.382619,10:00PM,10:00PM,True,False,10:00AM,False,10:00AM,10:00AM,10:00AM,73.66893367593845,(919)735-0424,True,-77.985983,10:00PM
2108 Stone Rose Avenue,(252) 442-7390,10:00PM,J970041,10:00AM,,,10:00PM,Rocky Mount,10:00AM,27804,False,10:00AM,10:00PM,NC,10:00PM,35.960243,10:00PM,10:00PM,True,False,10:00AM,True,10:00AM,10:00AM,10:00AM,76.3330316655013,(252)442-7390,True,-77.820895,10:00PM
214 North Berkeley Boulevard,(252) 902-9103,10:00PM,E080061,10:00AM,,,10:00PM,Goldsboro,10:00AM,27534,False,10:00AM,11:00PM,NC,11:00PM,35.37258,10:00PM,10:00PM,True,False,10:00AM,False,10:00AM,10:00AM,10:00AM,76.99774840781845,(919)751-0874,True,-77.949394,10:00PM
3613 Ramsey Street,,10:00PM,H667013,10:30AM,,,10:00PM,Fayetteville,10:30AM,28311,False,10:30AM,11:00PM,NC,11:00PM,35.11,10:00PM,10:00PM,False,False,10:30AM,False,10:30AM,10:00AM,10:30AM,77.5807436202655,(910)822-0120,True,-78.87883,10:00PM
1820 N. Church Street,(888) 532-2283,11:00PM,G135186,10:30AM,,,11:00PM,Burlington,10:30AM,27217,False,10:30AM,11:00PM,NC,11:00PM,36.095758,11:00PM,11:00PM,True,False,10:30AM,False,10:30AM,10:30AM,10:30AM,77.6282060038574,(336)229-1345,True,-79.406942,11:00PM
2304 Maple Avenue,(888) 532-2283,11:00PM,G135184,10:30AM,,,11:00PM,Burlington,10:30AM,27215,False,10:30AM,11:00PM,NC,11:00PM,36.067226,11:00PM,11:00PM,True,False,10:30AM,False,10:30AM,10:30AM,10:30AM,77.94523112393331,(336)229-6104,True,-79.427569,11:00PM
Intersection of Reilly & Gruber Rd.  H-3602,,10:00PM,H667019,10:00AM,,,10:00PM,Fort Bragg,10:00AM,28307,False,10:00AM,10:00PM,NC,10:00PM,35.12338,10:00PM,10:00PM,False,False,10:00AM,False,10:00AM,10:00AM,10:00AM,79.79060775442525,(910)960-1200,True,-78.99461,10:00PM
1120 Fairview Road,(252) 442-3617,10:00PM,J970040,10:00AM,,,10:00PM,Rocky Mount,10:00AM,27801,False,10:00AM,10:00PM,NC,10:00PM,35.94312,10:00PM,10:00PM,True,False,10:00AM,False,10:00AM,10:00AM,10:00AM,79.8167108699907,(252)442-3617,True,-77.77576,10:00PM
103 Highway 55 West,(252) 902-9103,1:00AM,E080062,10:00AM,,,12:00AM,Mount Olive,10:00AM,28365,False,10:00AM,1:00AM,NC,1:00AM,35.212084,12:00AM,12:00AM,True,False,10:00AM,False,10:00AM,10:00AM,10:00AM,81.71858789908381,(919)658-8331,True,-78.064645,12:00AM
1207 Bragg Boulevard,,10:00PM,H667012,10:30AM,,,10:00PM,Fayetteville,10:30AM,28301,False,10:30AM,11:00PM,NC,11:00PM,35.066431,10:00PM,10:00PM,False,False,10:30AM,False,10:30AM,10:00AM,10:30AM,82.7570257447921,(910)485-2531,True,-78.899412,10:00PM
665 Huffman Mill Road,(888) 532-2283,10:00PM,G135185,10:30AM,,,10:00PM,Burlington,10:30AM,27215,False,10:30AM,11:00PM,NC,11:00PM,36.07304,10:00PM,10:00PM,True,False,10:30AM,True,10:30AM,10:30AM,10:30AM,83.55432779175094,(336)524-9578,True,-79.49244,10:00PM
5077 Morganton Road,,10:00PM,H667017,10:30AM,,,10:00PM,Fayetteville,10:30AM,28314,False,10:30AM,11:00PM,NC,11:00PM,35.069486,10:00PM,10:00PM,False,False,10:30AM,True,10:30AM,10:00AM,10:30AM,84.25394652115791,(910)867-0717,True,-78.962593,10:00PM
3002 Raeford Road,,10:00PM,H667014,10:30AM,,,10:00PM,Fayetteville,10:30AM,28303,False,10:30AM,11:00PM,NC,11:00PM,35.044859,10:00PM,10:00PM,False,False,10:30AM,False,10:30AM,10:00AM,10:30AM,85.84709923241067,(910)485-7176,True,-78.929109,10:00PM
680 S. Reilly Road,,10:00PM,H667011,10:30AM,,,10:00PM,Fayetteville,10:30AM,28314,False,10:30AM,11:00PM,NC,11:00PM,35.06466,10:00PM,10:00PM,False,False,10:30AM,False,10:30AM,10:00AM,10:30AM,86.47118481190151,(910)487-7988,True,-79.01366,10:00PM
2849 Owen Drive,,10:00PM,H667021,10:30AM,,,10:00PM,Fayetteville,10:30AM,28306,False,10:30AM,11:00PM,NC,11:00PM,35.0185,10:00PM,10:00PM,False,False,10:30AM,False,10:30AM,10:00AM,10:30AM,87.96733229222984,(910)321-6018,True,-78.903,10:00PM
2500 Hope Mills Road,,10:00PM,H667016,10:30AM,,,10:00PM,Fayetteville,10:30AM,28306,False,10:30AM,11:00PM,NC,11:00PM,35.0046,10:00PM,10:00PM,False,False,10:30AM,True,10:30AM,10:00AM,10:30AM,91.1810214394825,(910)424-0038,True,-78.9669,10:00PM
1112 Sunset Avenue,,10:00PM,H667010,10:30AM,,,10:00PM,Clinton,10:30AM,28328,False,10:30AM,11:00PM,NC,11:00PM,34.993125,10:00PM,10:00PM,False,False,10:30AM,True,10:30AM,10:00AM,10:30AM,91.45702996483087,(910)592-5778,True,-78.342852,10:00PM
9505 Cliffdale Road,,10:00PM,H667022,10:30AM,,,10:00PM,Fayetteville,10:30AM,28304,False,10:30AM,11:00PM,NC,11:00PM,35.03089,10:00PM,10:00PM,False,False,10:30AM,False,10:30AM,10:00AM,10:30AM,91.66027025409436,(910)826-8800,True,-79.061333,10:00PM
5080 NC Highway 87 South,(855) 453-2669,10:00PM,H667008,10:30AM,,,10:00PM,Fayetteville,10:30AM,28306,False,10:30AM,11:00PM,NC,11:00PM,34.929661,10:00PM,10:00PM,True,False,10:30AM,False,10:30AM,10:00AM,10:30AM,96.52832412872267,(910)223-2959,True,-78.854824,10:00PM
2715 W. NC Highway 24,,10:00PM,H667020,10:30AM,,,10:00PM,Warsaw,10:30AM,28398,False,10:30AM,10:00PM,NC,10:00PM,34.993095,10:00PM,10:00PM,False,False,10:30AM,True,10:30AM,10:00AM,10:30AM,98.4296602501839,(910)293-3085,True,-78.139918,10:00PM
706 Western Boulevard,(252) 902-9148,10:00PM,E080054,10:00AM,,,10:00PM,Tarboro,10:00AM,27886,False,10:00AM,11:00PM,NC,11:00PM,35.89383,10:00PM,10:00PM,True,False,10:00AM,False,10:00AM,10:00AM,10:00AM,98.65886993382827,(252)823-6766,True,-77.55283,10:00PM
1704 N. Sandhills Blvd.,(910) 944-7205,10:00PM,J970005,10:00AM,,,10:00PM,Aberdeen,10:00AM,28315,False,10:00AM,10:00PM,NC,10:00PM,35.155616,10:00PM,10:00PM,True,False,10:00AM,False,10:00AM,10:00AM,10:00AM,98.76633695365567,(910)944-7205,True,-79.414355,10:00PM
1668 Blowing Rock Road,(828) 438-1900,10:00PM,E320011,10:00AM,,,10:00PM,Boone,10:00AM,28607,False,10:00AM,11:00PM,NC,11:00PM,36.199879,10:00PM,10:00PM,True,False,10:00AM,False,10:00AM,10:00AM,10:00AM,2.278780970268083,(828)264-4405,True,-81.660214,10:00PM
51 Beaver Creek School Rd,(828) 438-1900,11:00PM,E320007,10:00AM,,,11:00PM,West Jefferson,10:00AM,28694,False,10:00AM,11:00PM,NC,11:00PM,36.380111,11:00PM,11:00PM,True,False,10:00AM,False,10:00AM,10:00AM,10:00AM,24.767213839437574,(336)246-8871,True,-81.486625,11:00PM
485 South Shady Street,,11:00PM,E320069,10:00AM,,,11:00PM,Mountain City,10:00AM,37683,False,10:00AM,11:00PM,TN,11:00PM,36.470528,11:00PM,11:00PM,False,False,10:00AM,False,10:00AM,10:00AM,10:00AM,30.588034863348774,(423)460-2026,False,-81.806474,11:00PM
428 Blowing Rock Road,(828) 758-2400,10:00PM,C570008,10:00AM,,,10:00PM,Lenoir,10:00AM,28645,False,10:00AM,10:00PM,NC,10:00PM,35.92113,10:00PM,10:00PM,True,False,10:00AM,False,10:00AM,9:00AM,10:00AM,35.530403148481675,(828)758-2400,True,-81.52464,10:00PM
1900 Addison Ave,(336) 667-1313,11:00PM,E320013,10:00AM,,,11:00PM,Wilkesboro,10:00AM,28697,False,10:00AM,11:00PM,NC,11:00PM,36.149722,11:00PM,11:00PM,True,False,10:00AM,True,10:00AM,10:00AM,10:00AM,43.63763311820381,(336)667-1313,True,-81.195487,11:00PM
640 Main Street,(828) 438-1900,10:00PM,E320023,10:00AM,,,10:00PM,Hudson,10:00AM,28638,False,10:00AM,11:00PM,NC,11:00PM,35.841668,10:00PM,10:00PM,True,False,10:00AM,False,10:00AM,10:00AM,10:00AM,44.88464083905633,(828)728-8773,True,-81.490234,10:00PM
12358 Highway 226 South,(828) 438-1900,11:00PM,E320014,10:00AM,,,11:00PM,Spruce Pine,10:00AM,28777,False,10:00AM,11:00PM,NC,11:00PM,35.887599,11:00PM,11:00PM,True,False,10:00AM,False,10:00AM,10:00AM,10:00AM,50.68823574415677,(828)765-1532,True,-82.064574,11:00PM
207 Broad Street,,11:00PM,F845004,10:00AM,,,11:00PM,Elizabethton,10:00AM,37643,False,10:00AM,11:00PM,TN,11:00PM,36.350609,11:00PM,11:00PM,False,False,10:00AM,False,10:00AM,10:00AM,10:00AM,51.32890732758976,(423)543-2271,True,-82.222615,11:00PM
324 Carbon City Rd,(828) 437-3171,12:00AM,E320010,10:00AM,,,12:00AM,Morganton,10:00AM,28655,False,10:00AM,1:00AM,NC,1:00AM,35.735199,12:00AM,12:00AM,True,False,10:00AM,False,10:00AM,10:00AM,10:00AM,53.75546284860568,(828)437-3171,True,-81.726601,12:00AM
24 Liledoun Road,(828) 632-5153,10:30PM,C570007,10:00AM,,,10:30PM,Taylorsville,10:00AM,28681,False,10:00AM,12:00AM,NC,12:00AM,35.921711,10:30PM,10:30PM,True,False,10:00AM,False,10:00AM,10:00AM,10:00AM,54.7866775382527,(828)632-5153,True,-81.186403,10:30PM
1219 Burkemont Avenue,(828) 437-9600,11:00PM,E320006,10:00AM,,,11:00PM,Morganton,10:00AM,28655,False,10:00AM,11:00PM,NC,11:00PM,35.716528,11:00PM,11:00PM,True,False,10:00AM,False,10:00AM,10:00AM,10:00AM,55.65881916382518,(828)437-9600,True,-81.695411,11:00PM
311 Highway 70 East,(828) 328-4420,10:00PM,C570002,10:00AM,,,10:00PM,Hildebran,10:00AM,28637,False,10:00AM,10:00PM,NC,10:00PM,35.716057,10:00PM,10:00PM,True,False,10:00AM,False,10:00AM,10:00AM,10:00AM,60.61962959041323,(828)328-4420,True,-81.408214,10:00PM
5548 Highway 11 East,,10:00PM,F845010,10:00AM,,,10:00PM,Piney Flats,10:00AM,37686,False,10:00AM,10:00PM,TN,10:00PM,36.437089,10:00PM,10:00PM,False,False,10:00AM,False,10:00AM,10:00AM,10:00AM,61.57127525665968,(423)538-1050,True,-82.305121,10:00PM
1900 12th Avenue  NE,(828) 328-1270,10:00PM,C570001,10:00AM,,,10:00PM,Hickory,10:00AM,28601,False,10:00AM,10:00PM,NC,10:00PM,35.74277,10:00PM,10:00PM,True,False,10:00AM,False,10:00AM,10:00AM,10:00AM,62.53673624732266,(828)328-1270,True,-81.30054,10:00PM
2037 Lee Highway,(844) 255-9219,10:00PM,J718120,7:00AM,,,10:00PM,Bristol,7:00AM,24201,False,7:00AM,10:00PM,VA,10:00PM,36.624695,10:00PM,10:00PM,True,False,7:00AM,True,7:00AM,10:00AM,7:00AM,62.80780162777683,(276)466-9211,True,-82.160122,10:00PM
1920 N. Roan Street,(844) 255-9219,10:00PM,J718005,10:30AM,,,10:00PM,Johnson City,10:30AM,37601,False,10:30AM,10:00PM,TN,10:00PM,36.338534,10:00PM,10:00PM,True,False,10:30AM,True,10:30AM,10:30AM,10:30AM,64.09162985109967,(423)283-4350,True,-82.373407,10:00PM
1110 Highway 70  W.,(828) 438-1900,10:00PM,E320005,10:00AM,,,10:00PM,Marion,10:00AM,28752,False,10:00AM,10:00PM,NC,10:00PM,35.705683,10:00PM,10:00PM,True,False,10:00AM,False,10:00AM,10:00AM,10:00AM,65.39419741151747,(828)652-2322,True,-82.033968,10:00PM
1213 North Main Street,,10:00PM,F845005,10:00AM,,,10:00PM,Erwin,10:00AM,37650,False,10:00AM,11:00PM,TN,11:00PM,36.159203,10:00PM,10:00PM,False,False,10:00AM,False,10:00AM,10:00AM,10:00AM,65.50112190498874,(423)743-4231,True,-82.400926,10:00PM
3334 South Highway 226,(828) 438-1900,11:00PM,E320028,10:00AM,,,11:00PM,Marion,10:00AM,28752,False,10:00AM,11:00PM,NC,11:00PM,35.658318,11:00PM,11:00PM,True,False,10:00AM,False,10:00AM,10:00AM,10:00AM,67.34829896939823,(828)652-5080,True,-81.964075,11:00PM
2805 Northwest Boulevard,(828) 464-8070,10:00PM,C570003,10:00AM,,,10:00PM,Newton,10:00AM,28658,False,10:00AM,11:00PM,NC,11:00PM,35.694757,10:00PM,10:00PM,True,False,10:00AM,False,10:00AM,10:00AM,10:00AM,70.68472900800178,(828)464-8070,True,-81.226446,10:00PM
798 N. Main Street,(844) 255-9219,10:00PM,J718244,7:00AM,,,10:00PM,Marion,7:00AM,24354,False,7:00AM,10:00PM,VA,10:00PM,36.839559,10:00PM,10:00PM,True,False,7:00AM,True,7:00AM,10:30AM,7:00AM,70.83264596530464,(276)783-2331,True,-81.507816,10:00PM
1485 N. Bridge Street,,10:00PM,F845014,10:00AM,,,10:00PM,Elkin,10:00AM,28621,False,10:00AM,10:00PM,NC,10:00PM,36.270874,10:00PM,10:00PM,False,False,10:00AM,False,10:00AM,10:00AM,10:00AM,73.85015121517071,(336)835-3027,True,-80.853795,10:00PM
2401 Ft. Henry Drive,(844) 255-9219,10:00PM,J718011,10:30AM,,,10:00PM,Kingsport,10:30AM,37664,False,10:30AM,10:00PM,TN,10:00PM,36.524862,10:00PM,10:00PM,True,False,10:30AM,True,10:30AM,10:30AM,10:30AM,83.0326352722459,(423)245-4391,True,-82.519347,10:00PM
23 Elliott Street,(844) 255-9219,10:00PM,J718256,10:30AM,,,10:00PM,Lebanon,10:30AM,24266,False,10:30AM,10:00PM,VA,10:00PM,36.902339,10:00PM,10:00PM,True,False,10:30AM,True,10:30AM,10:30AM,10:30AM,83.14290379114034,(276)889-2542,True,-82.046211,10:00PM
1005 Glenway Drive,(828) 438-1900,10:00PM,F845002,10:00AM,,,10:00PM,Statesville,10:00AM,28625,False,10:00AM,11:00PM,NC,11:00PM,35.809637,10:00PM,10:00PM,True,False,10:00AM,False,10:00AM,10:00AM,10:00AM,85.0612618726265,(704)871-8118,True,-80.873912,10:00PM
1102 Salisbury Road,(828) 438-1900,11:00PM,F845001,10:00AM,,,11:00PM,Statesville,10:00AM,28625,False,10:00AM,11:00PM,NC,11:00PM,35.774428,11:00PM,11:00PM,True,False,10:00AM,False,10:00AM,10:00AM,10:00AM,88.05450761653769,(704)873-8821,True,-80.862721,11:00PM
1122 E. Stuart Drive,(276) 236-8002,9:00PM,L087002,10:30AM,,,9:00PM,Galax,10:30AM,24333,False,10:30AM,10:00PM,VA,10:00PM,36.690421,9:00PM,9:00PM,True,False,10:30AM,True,10:00AM,10:00AM,10:30AM,88.28353987320146,(276)236-8002,True,-80.882324,9:00PM
813 Lynn Garden Drive,(844) 255-9219,9:30PM,J718007,10:30AM,,,9:30PM,Kingsport,10:30AM,37660,False,10:30AM,10:00PM,TN,10:00PM,36.564314,9:30PM,9:30PM,True,False,10:30AM,True,10:30AM,10:30AM,10:30AM,88.57502861549749,(423)245-4455,True,-82.564967,9:30PM
1912 E. Main St.,(704) 735-4671,10:00PM,E320049,10:00AM,,,10:00PM,Lincolnton,10:00AM,28092,False,10:00AM,10:00PM,NC,10:00PM,35.478036,10:00PM,10:00PM,True,False,10:00AM,False,10:00AM,10:00AM,10:00AM,91.60058213871113,(704)735-4671,True,-81.224874,10:00PM
705 South State Street,,10:00PM,F845012,10:00AM,,,10:00PM,Yadkinville,10:00AM,27055,False,10:00AM,10:00PM,NC,10:00PM,36.12235,10:00PM,10:00PM,False,False,10:00AM,False,10:00AM,10:00AM,10:00AM,91.69812962297824,(336)677-8686,True,-80.65973,10:00PM
6159 Hwy 16 South,(704) 483-9123,11:00PM,E320033,10:00AM,,,11:00PM,Denver,10:00AM,28037,False,10:00AM,12:00AM,NC,12:00AM,35.55582,11:00PM,11:00PM,True,False,10:00AM,False,10:00AM,10:00AM,10:00AM,91.83823087090732,(704)483-9120,True,-81.063278,11:00PM
1101 East Church Street,(828) 438-1900,12:00AM,E320044,10:00AM,,,12:00AM,Cherryville,10:00AM,28021,False,10:00AM,12:00AM,NC,12:00AM,35.386099,12:00AM,12:00AM,True,False,10:00AM,False,10:00AM,10:00AM,10:00AM,96.49312576887912,(704)435-9090,True,-81.36509,12:00AM
150 Commonwealth Drive,(844) 255-9219,10:00PM,J718258,7:00AM,,,10:00PM,Wytheville,7:00AM,24382,False,7:00AM,10:00PM,VA,10:00PM,36.958614,10:00PM,10:00PM,True,False,7:00AM,True,7:00AM,10:30AM,7:00AM,97.29388720645055,(276)228-7321,True,-81.096658,10:00PM
115 College Ave,(828) 287-9243,10:00PM,C426005,10:30AM,,,10:00PM,Rutherfordton,10:30AM,28139,False,10:30AM,10:00PM,NC,10:00PM,35.36234,10:00PM,10:00PM,True,False,10:30AM,False,10:30AM,10:30AM,10:30AM,98.01246439063608,(828)287-9243,True,-81.94141,10:00PM
91 Weaver Boulevard,(844) 255-9219,10:00PM,J718147,10:30AM,,,10:00PM,Weaverville,10:30AM,28787,False,10:30AM,10:00PM,NC,10:00PM,35.704298,10:00PM,10:00PM,True,False,10:30AM,True,10:30AM,10:30AM,10:30AM,98.54543272167203,(828)645-4438,True,-82.567827,10:00PM
2120 Rockford Extension,(888) 532-2283,10:00PM,G135187,10:30AM,,,10:00PM,Mount Airy,10:30AM,27030,False,10:30AM,11:00PM,NC,11:00PM,36.477614,10:00PM,10:00PM,True,False,10:30AM,True,10:30AM,10:30AM,10:30AM,98.94576759944937,(336)786-1911,True,-80.618279,10:00PM
1030 Patton Avenue,(844) 255-9219,10:00PM,J718084,10:30AM,,,10:00PM,Asheville,10:30AM,28806,False,10:30AM,10:00PM,NC,10:00PM,35.586327,10:00PM,10:00PM,True,False,10:30AM,True,10:30AM,10:30AM,10:30AM,3.829485451267238,(828)253-2284,True,-82.592454,10:00PM
800 Fairview Road,(844) 255-9219,10:00PM,J718112,10:30AM,River Ridge Market Place,,10:00PM,Asheville,10:30AM,28803,False,10:30AM,10:00PM,NC,10:00PM,35.56941,10:00PM,10:00PM,True,False,10:30AM,True,10:30AM,10:30AM,10:30AM,4.956437575356918,(828)298-0312,True,-82.506661,10:00PM
1860 Hendersonville Road,(844) 255-9219,9:00PM,J718212,10:30AM,,,9:00PM,Asheville,10:30AM,28803,False,10:30AM,10:00PM,NC,10:00PM,35.500137,9:00PM,9:00PM,True,False,10:30AM,True,10:30AM,10:30AM,10:30AM,10.900521618512204,(828)274-4976,True,-82.521381,9:00PM
91 Weaver Boulevard,(844) 255-9219,10:00PM,J718147,10:30AM,,,10:00PM,Weaverville,10:30AM,28787,False,10:30AM,10:00PM,NC,10:00PM,35.704298,10:00PM,10:00PM,True,False,10:30AM,True,10:30AM,10:30AM,10:30AM,12.236322476966022,(828)645-4438,True,-82.567827,10:00PM
24 New Clyde Highway,(828) 438-1900,10:00PM,E320030,10:00AM,,,10:00PM,Canton,10:00AM,28716,False,10:00AM,10:00PM,NC,10:00PM,35.533022,10:00PM,10:00PM,True,False,10:00AM,False,10:00AM,10:00AM,10:00AM,28.36877384840774,(828)648-3335,True,-82.855703,10:00PM
1903 Four Seasons Boulevard,(828) 697-6288,10:00PM,E320016,10:00AM,,,10:00PM,Hendersonville,10:00AM,28792,False,10:00AM,11:00PM,NC,11:00PM,35.337006,10:00PM,10:00PM,True,False,10:00AM,True,10:00AM,10:00AM,10:00AM,30.27613287086099,(828)697-6288,True,-82.444834,10:00PM
667 Russ Avenue,(828) 456-6626,9:00PM,C526001,10:30AM,,,9:00PM,Waynesville,10:30AM,28786,False,10:30AM,9:00PM,NC,9:00PM,35.502023,9:00PM,9:00PM,True,False,10:30AM,False,10:30AM,10:30AM,10:30AM,40.94263389858494,(828)456-6626,True,-82.989354,9:00PM
1110 Highway 70  W.,(828) 438-1900,10:00PM,E320005,10:00AM,,,10:00PM,Marion,10:00AM,28752,False,10:00AM,10:00PM,NC,10:00PM,35.705683,10:00PM,10:00PM,True,False,10:00AM,False,10:00AM,10:00AM,10:00AM,48.35161541841261,(828)652-2322,True,-82.033968,10:00PM
30 Shuford Road,(828) 438-1900,11:00PM,E320017,10:00AM,,,11:00PM,Columbus,10:00AM,28722,False,10:00AM,11:00PM,NC,11:00PM,35.243577,11:00PM,11:00PM,True,False,10:00AM,False,10:00AM,10:00AM,10:00AM,49.92714072852271,(828)894-2445,True,-82.208629,11:00PM
3334 South Highway 226,(828) 438-1900,11:00PM,E320028,10:00AM,,,11:00PM,Marion,10:00AM,28752,False,10:00AM,11:00PM,NC,11:00PM,35.658318,11:00PM,11:00PM,True,False,10:00AM,False,10:00AM,10:00AM,10:00AM,53.555637813328396,(828)652-5080,True,-81.964075,11:00PM
12358 Highway 226 South,(828) 438-1900,11:00PM,E320014,10:00AM,,,11:00PM,Spruce Pine,10:00AM,28777,False,10:00AM,11:00PM,NC,11:00PM,35.887599,11:00PM,11:00PM,True,False,10:00AM,False,10:00AM,10:00AM,10:00AM,54.6745644880331,(828)765-1532,True,-82.064574,11:00PM
115 College Ave,(828) 287-9243,10:00PM,C426005,10:30AM,,,10:00PM,Rutherfordton,10:30AM,28139,False,10:30AM,10:00PM,NC,10:00PM,35.36234,10:00PM,10:00PM,True,False,10:30AM,False,10:30AM,10:30AM,10:30AM,61.002455734759955,(828)287-9243,True,-81.94141,10:00PM
1213 North Main Street,,10:00PM,F845005,10:00AM,,,10:00PM,Erwin,10:00AM,37650,False,10:00AM,11:00PM,TN,11:00PM,36.159203,10:00PM,10:00PM,False,False,10:00AM,False,10:00AM,10:00AM,10:00AM,64.18000655124273,(423)743-4231,True,-82.400926,10:00PM
131 Bethany Church Road,(828) 245-5716,10:00PM,C426003,10:00AM,,,10:00PM,Forest City,10:00AM,28043,False,10:00AM,10:00PM,NC,10:00PM,35.317251,10:00PM,10:00PM,True,False,10:00AM,False,10:00AM,10:00AM,10:00AM,68.11752097493503,(828)245-5716,True,-81.881205,10:00PM
1735 East Andrew Johnson Highway,,11:00PM,F845008,10:00AM,,,11:00PM,Greeneville,10:00AM,37745,False,10:00AM,11:00PM,TN,11:00PM,36.177696,11:00PM,11:00PM,False,False,10:00AM,False,10:00AM,10:00AM,10:00AM,68.32957516965074,(423)639-3601,True,-82.792561,11:00PM
805 Cosby Highway,,9:00PM,C790001,10:00AM,,,9:00PM,Newport,10:00AM,37821,False,10:00AM,10:00PM,TN,10:00PM,35.95154,9:00PM,9:00PM,False,False,10:00AM,True,10:00AM,10:00AM,10:00AM,70.7093588198706,(423)623-3237,True,-83.200529,9:00PM
22 Nickeh Dr,(828) 438-1900,10:00PM,E320021,10:00AM,,,10:00PM,Cherokee,10:00AM,28719,False,10:00AM,11:00PM,NC,11:00PM,35.477431,10:00PM,10:00PM,True,False,10:00AM,True,10:00AM,10:00AM,10:00AM,70.84389191634895,(828)497-9444,True,-83.320968,10:00PM
6500 State Park Rd,(844) 255-9219,10:00PM,J718182,10:30AM,,,10:00PM,Travelers Rest,10:30AM,29690,False,10:30AM,11:00PM,SC,11:00PM,34.964857,10:00PM,10:00PM,True,False,10:30AM,True,10:30AM,10:30AM,10:30AM,70.9186040742718,(864)834-0903,True,-82.43135,10:00PM
324 Carbon City Rd,(828) 437-3171,12:00AM,E320010,10:00AM,,,12:00AM,Morganton,10:00AM,28655,False,10:00AM,1:00AM,NC,1:00AM,35.735199,12:00AM,12:00AM,True,False,10:00AM,False,10:00AM,10:00AM,10:00AM,76.13100741953217,(828)437-3171,True,-81.726601,12:00AM
1329 W Wade Hampton Blvd,(844) 255-9219,10:00PM,J718179,10:30AM,,,10:00PM,Greer,10:30AM,29650,False,10:30AM,10:00PM,SC,10:00PM,34.940779,10:00PM,10:00PM,True,False,10:30AM,True,10:30AM,10:30AM,10:30AM,77.36345489102291,(864)848-1801,True,-82.26169,10:00PM
1219 Burkemont Avenue,(828) 437-9600,11:00PM,E320006,10:00AM,,,11:00PM,Morganton,10:00AM,28655,False,10:00AM,11:00PM,NC,11:00PM,35.716528,11:00PM,11:00PM,True,False,10:00AM,False,10:00AM,10:00AM,10:00AM,78.51632525500624,(828)437-9600,True,-81.695411,11:00PM
3200 N. Pleasantburg Drive,(844) 255-9219,10:00PM,J718263,10:30AM,,,10:00PM,Greenville,10:30AM,29609,False,10:30AM,10:00PM,SC,10:00PM,34.889581,10:00PM,9:00PM,True,False,10:30AM,True,10:30AM,10:30AM,10:30AM,79.65744038938672,(864)235-8126,True,-82.399059,9:00PM
2809 Gentry Memorial Highway,,9:00PM,L765035,10:00AM,,,9:00PM,Pickens,10:00AM,29671,False,10:00AM,9:00PM,SC,9:00PM,34.873037,9:00PM,9:00PM,False,False,10:00AM,False,10:00AM,10:00AM,10:00AM,81.33368051416754,(864)878-2568,True,-82.694823,9:00PM
6102 White Horse Rd,(844) 255-9219,10:00PM,J718180,10:30AM,,,10:00PM,Greenville,10:30AM,29611,False,10:30AM,10:00PM,SC,10:00PM,34.852852,10:00PM,10:00PM,True,False,10:30AM,True,10:30AM,10:30AM,10:30AM,83.02423717525461,(864)269-1060,True,-82.451858,10:00PM
1920 N. Roan Street,(844) 255-9219,10:00PM,J718005,10:30AM,,,10:00PM,Johnson City,10:30AM,37601,False,10:30AM,10:00PM,TN,10:00PM,36.338534,10:00PM,10:00PM,True,False,10:30AM,True,10:30AM,10:30AM,10:30AM,84.20982010565145,(423)283-4350,True,-82.373407,10:00PM
5708 Calhoun Memorial Highway,,9:00PM,L765033,10:00AM,,,9:00PM,Easley,10:00AM,29640,False,10:00AM,9:00PM,SC,9:00PM,34.825438,9:00PM,9:00PM,False,False,10:00AM,True,10:00AM,10:00AM,10:00AM,85.59679397816626,(864)859-4817,True,-82.571308,9:00PM
1797 Asheville Highway,(864) 542-0700,10:00PM,D121007,10:30AM,,,10:00PM,Spartanburg,10:30AM,29303,False,10:30AM,10:00PM,SC,10:00PM,34.983564,10:00PM,10:00PM,True,False,10:30AM,False,10:30AM,10:00AM,10:30AM,86.01492893652706,(864)542-0700,True,-81.971056,10:00PM
20 Holly Springs Plz,(828) 438-1900,10:00PM,E320019,10:00AM,,,10:00PM,Franklin,10:00AM,28734,False,10:00AM,10:00PM,NC,10:00PM,35.182942,10:00PM,10:00PM,True,False,10:00AM,False,10:00AM,10:00AM,10:00AM,86.14432830420954,(828)524-5965,True,-83.356172,10:00PM
1540 East Main St.,(864) 433-8536,10:00PM,C426008,10:30AM,,,10:00PM,Duncan,10:30AM,29334,False,10:30AM,10:00PM,SC,10:00PM,34.908944,10:00PM,10:00PM,True,False,10:30AM,False,10:30AM,10:00AM,10:30AM,86.49480631147402,(864)433-8536,True,-82.102677,10:00PM
207 Broad Street,,11:00PM,F845004,10:00AM,,,11:00PM,Elizabethton,10:00AM,37643,False,10:00AM,11:00PM,TN,11:00PM,36.350609,11:00PM,11:00PM,False,False,10:00AM,False,10:00AM,10:00AM,10:00AM,89.07350143858814,(423)543-2271,True,-82.222615,11:00PM
219 South Main St.,(704) 434-0002,10:00PM,C426007,10:30AM,,,10:00PM,Boiling Springs,10:30AM,28017,False,10:30AM,10:00PM,NC,10:00PM,35.245032,10:00PM,10:00PM,True,False,10:30AM,False,10:30AM,10:30AM,10:30AM,89.19944905423168,(704)434-0002,True,-81.665759,10:00PM
1466 Woodruff Road,(844) 255-9219,9:30PM,J718248,10:30AM,,,9:30PM,Greenville,10:30AM,29607,False,10:30AM,10:00PM,SC,10:00PM,34.820435,9:30PM,9:30PM,True,False,10:30AM,True,10:30AM,10:30AM,10:30AM,89.57429793440616,(864)458-9103,True,-82.280873,9:30PM
1459 W. O. Ezell Boulevard,(864) 574-7722,10:00PM,D121004,10:30AM,,,10:00PM,Spartanburg,10:30AM,29301,False,10:30AM,10:00PM,SC,10:00PM,34.937139,10:00PM,10:00PM,True,False,10:30AM,False,10:30AM,10:00AM,10:30AM,89.67303854826638,(864)574-7722,True,-81.98028,10:00PM
3100 Highway 153,,9:00PM,L765032,10:00AM,,,9:00PM,Piedmont,10:00AM,29673,False,10:00AM,9:00PM,SC,9:00PM,34.778816,9:00PM,9:00PM,False,False,10:00AM,True,10:00AM,10:00AM,10:00AM,91.0720860668399,(864)269-6802,True,-82.468855,9:00PM
3984 Parkway,(844) 255-9219,9:00PM,J718135,10:30AM,,,9:00PM,Pigeon Forge,10:30AM,37863,False,10:30AM,9:00PM,TN,9:00PM,35.776483,9:00PM,9:00PM,True,False,10:30AM,False,10:30AM,10:30AM,10:30AM,92.00228123877584,(865)453-4371,True,-83.545376,9:00PM
308 W. Butler Road,(844) 255-9219,10:00PM,J718239,10:30AM,,,10:00PM,Mauldin,10:30AM,29662,False,10:30AM,10:00PM,SC,10:00PM,34.776263,10:00PM,10:00PM,True,False,10:30AM,True,10:30AM,10:30AM,10:30AM,93.50574546001305,(864)288-6733,True,-82.317029,10:00PM
933 Dolly Parton Parkway,(844) 255-9219,9:00PM,J718315,10:30AM,,,9:00PM,Sevierville,10:30AM,37862,False,10:30AM,9:00PM,TN,9:00PM,35.863691,9:00PM,9:00PM,True,False,10:30AM,False,10:30AM,10:30AM,10:30AM,94.42472962396812,(865)428-3069,True,-83.543841,9:00PM
521 E. Morris Blvd.,(606) 248-8352,10:00PM,K750017,10:30AM,,,10:00PM,Morristown,10:30AM,37813,False,10:30AM,11:00PM,TN,11:00PM,36.214775,10:00PM,10:00PM,True,False,10:30AM,True,10:30AM,10:30AM,10:30AM,95.58074724890874,(423)581-3276,True,-83.286904,10:00PM
5548 Highway 11 East,,10:00PM,F845010,10:00AM,,,10:00PM,Piney Flats,10:00AM,37686,False,10:00AM,10:00PM,TN,10:00PM,36.437089,10:00PM,10:00PM,False,False,10:00AM,False,10:00AM,10:00AM,10:00AM,96.21568704434634,(423)538-1050,True,-82.305121,10:00PM
228 Cedar Springs Road,(864) 582-5425,10:00PM,D121006,10:30AM,,,10:00PM,Spartanburg,10:30AM,29302,False,10:30AM,10:00PM,SC,10:00PM,34.918729,10:00PM,10:00PM,True,False,10:30AM,False,10:30AM,10:00AM,10:30AM,96.4584371571294,(864)582-5425,True,-81.886234,10:00PM
7418 Augusta Road,(864) 964-9996,9:00PM,L765011,10:00AM,,,9:00PM,Piedmont,10:00AM,29673,False,10:00AM,9:00PM,SC,9:00PM,34.728791,9:00PM,9:00PM,True,False,10:00AM,False,10:00AM,10:00AM,10:00AM,97.44125984774135,(864)277-2471,True,-82.389664,9:00PM
326 Grover Street,(704) 487-4146,10:00PM,C570004,10:00AM,,,10:00PM,Shelby,10:00AM,28150,False,10:00AM,10:00PM,NC,10:00PM,35.302097,10:00PM,10:00PM,True,False,10:00AM,False,10:00AM,10:00AM,10:00AM,97.77162040558879,(704)487-4146,True,-81.533797,10:00PM
3938 Highway 66,(606) 248-8352,9:30PM,K750011,10:30AM,,,9:30PM,Rogersville,10:30AM,37857,False,10:30AM,10:00PM,TN,10:00PM,36.393873,9:30PM,9:30PM,True,False,10:30AM,True,10:30AM,10:30AM,10:30AM,97.96544983580705,(423)272-5704,True,-83.010808,9:30PM
1367 W. Floyd Baker Boulevard,(844) 255-9219,10:00PM,J718238,10:30AM,,,10:00PM,Gaffney,10:30AM,29341,False,10:30AM,10:00PM,SC,10:00PM,35.08563,10:00PM,10:00PM,True,False,10:30AM,True,10:30AM,10:30AM,10:30AM,98.7249009015355,(864)489-7011,True,-81.660049,10:00PM
428 Blowing Rock Road,(828) 758-2400,10:00PM,C570008,10:00AM,,,10:00PM,Lenoir,10:00AM,28645,False,10:00AM,10:00PM,NC,10:00PM,35.92113,10:00PM,10:00PM,True,False,10:00AM,False,10:00AM,9:00AM,10:00AM,99.49697468756017,(828)758-2400,True,-81.52464,10:00PM
640 Main Street,(828) 438-1900,10:00PM,E320023,10:00AM,,,10:00PM,Hudson,10:00AM,28638,False,10:00AM,11:00PM,NC,11:00PM,35.841668,10:00PM,10:00PM,True,False,10:00AM,False,10:00AM,10:00AM,10:00AM,99.65498706601169,(828)728-8773,True,-81.490234,10:00PM
1102 East Dixon Boulevard,(704) 487-7252,10:00PM,C570006,10:00AM,,,10:00PM,Shelby,10:00AM,28152,False,10:00AM,10:00PM,NC,10:00PM,35.272875,10:00PM,10:00PM,True,False,10:00AM,False,10:00AM,10:00AM,10:00AM,99.7055370267348,(704)487-7252,True,-81.524468,10:00PM
1207 Bragg Boulevard,,10:00PM,H667012,10:30AM,,,10:00PM,Fayetteville,10:30AM,28301,False,10:30AM,11:00PM,NC,11:00PM,35.066431,10:00PM,10:00PM,False,False,10:30AM,False,10:30AM,10:00AM,10:30AM,2.4526475497329883,(910)485-2531,True,-78.899412,10:00PM
2849 Owen Drive,,10:00PM,H667021,10:30AM,,,10:00PM,Fayetteville,10:30AM,28306,False,10:30AM,11:00PM,NC,11:00PM,35.0185,10:00PM,10:00PM,False,False,10:30AM,False,10:30AM,10:00AM,10:30AM,4.411890380944201,(910)321-6018,True,-78.903,10:00PM
3002 Raeford Road,,10:00PM,H667014,10:30AM,,,10:00PM,Fayetteville,10:30AM,28303,False,10:30AM,11:00PM,NC,11:00PM,35.044859,10:00PM,10:00PM,False,False,10:30AM,False,10:30AM,10:00AM,10:30AM,4.700694413051434,(910)485-7176,True,-78.929109,10:00PM
3613 Ramsey Street,,10:00PM,H667013,10:30AM,,,10:00PM,Fayetteville,10:30AM,28311,False,10:30AM,11:00PM,NC,11:00PM,35.11,10:00PM,10:00PM,False,False,10:30AM,False,10:30AM,10:00AM,10:30AM,6.375605556013655,(910)822-0120,True,-78.87883,10:00PM
5077 Morganton Road,,10:00PM,H667017,10:30AM,,,10:00PM,Fayetteville,10:30AM,28314,False,10:30AM,11:00PM,NC,11:00PM,35.069486,10:00PM,10:00PM,False,False,10:30AM,True,10:30AM,10:00AM,10:30AM,7.891695120272434,(910)867-0717,True,-78.962593,10:00PM
2500 Hope Mills Road,,10:00PM,H667016,10:30AM,,,10:00PM,Fayetteville,10:30AM,28306,False,10:30AM,11:00PM,NC,11:00PM,35.0046,10:00PM,10:00PM,False,False,10:30AM,True,10:30AM,10:00AM,10:30AM,9.672631381835346,(910)424-0038,True,-78.9669,10:00PM
680 S. Reilly Road,,10:00PM,H667011,10:30AM,,,10:00PM,Fayetteville,10:30AM,28314,False,10:30AM,11:00PM,NC,11:00PM,35.06466,10:00PM,10:00PM,False,False,10:30AM,False,10:30AM,10:00AM,10:30AM,12.387196434035593,(910)487-7988,True,-79.01366,10:00PM
Intersection of Reilly & Gruber Rd.  H-3602,,10:00PM,H667019,10:00AM,,,10:00PM,Fort Bragg,10:00AM,28307,False,10:00AM,10:00PM,NC,10:00PM,35.12338,10:00PM,10:00PM,False,False,10:00AM,False,10:00AM,10:00AM,10:00AM,13.180009314132484,(910)960-1200,True,-78.99461,10:00PM
5080 NC Highway 87 South,(855) 453-2669,10:00PM,H667008,10:30AM,,,10:00PM,Fayetteville,10:30AM,28306,False,10:30AM,11:00PM,NC,11:00PM,34.929661,10:00PM,10:00PM,True,False,10:30AM,False,10:30AM,10:00AM,10:30AM,13.844325082252025,(910)223-2959,True,-78.854824,10:00PM
9505 Cliffdale Road,,10:00PM,H667022,10:30AM,,,10:00PM,Fayetteville,10:30AM,28304,False,10:30AM,11:00PM,NC,11:00PM,35.03089,10:00PM,10:00PM,False,False,10:30AM,False,10:30AM,10:00AM,10:30AM,16.83285281913169,(910)826-8800,True,-79.061333,10:00PM
895 NC Highway 24-87,,10:00PM,H667025,10:30AM,,,10:00PM,Cameron,10:30AM,28326,False,10:30AM,11:00PM,NC,11:00PM,35.261956,10:00PM,10:00PM,False,False,10:30AM,True,10:30AM,10:00AM,10:30AM,27.87672794041702,(919)498-1750,True,-79.047169,10:00PM
120 S. 401 By-Pass,(910) 875-6876,10:00PM,J970021,10:00AM,,,10:00PM,Raeford,10:00AM,28376,False,10:00AM,10:00PM,NC,10:00PM,34.97866,10:00PM,10:00PM,True,False,10:00AM,False,10:00AM,10:00AM,10:00AM,33.64172862456005,(910)875-6876,True,-79.23655,10:00PM
1192 W. Broad Street,,10:00PM,H667009,10:30AM,,,10:00PM,Dunn,10:30AM,28334,False,10:30AM,11:00PM,NC,11:00PM,35.316309,10:00PM,10:00PM,False,False,10:30AM,True,10:30AM,10:00AM,10:30AM,37.20674803330101,(910)892-6189,True,-78.626255,10:00PM
911 East 4th Street,(910) 843-5957,10:00PM,J970031,10:00AM,,,10:00PM,Red Springs,10:00AM,28377,False,10:00AM,10:00PM,NC,10:00PM,34.80826,10:00PM,10:00PM,True,False,10:00AM,False,10:00AM,10:00AM,10:00AM,37.94621799491565,(910)843-5957,True,-79.168862,10:00PM
2000 Roberts Avenue,(910) 738-7558,10:00PM,J970009,10:00AM,,,10:00PM,Lumberton,10:00AM,28358,False,10:00AM,10:00PM,NC,10:00PM,34.638465,10:00PM,10:00PM,True,False,10:00AM,False,10:00AM,10:00AM,10:00AM,47.36203474835173,(910)738-7558,True,-78.99936,10:00PM
1112 Sunset Avenue,,10:00PM,H667010,10:30AM,,,10:00PM,Clinton,10:30AM,28328,False,10:30AM,11:00PM,NC,11:00PM,34.993125,10:00PM,10:00PM,False,False,10:30AM,True,10:30AM,10:00AM,10:30AM,49.210557511181776,(910)592-5778,True,-78.342852,10:00PM
520 W. Second Street,(910) 738-2658,10:00PM,J970010,10:00AM,,,10:00PM,Lumberton,10:00AM,28358,False,10:00AM,10:00PM,NC,10:00PM,34.620145,10:00PM,10:00PM,True,False,10:00AM,False,10:00AM,10:00AM,10:00AM,49.6955168544061,(910)738-2658,True,-79.015481,10:00PM
1704 N. Sandhills Blvd.,(910) 944-7205,10:00PM,J970005,10:00AM,,,10:00PM,Aberdeen,10:00AM,28315,False,10:00AM,10:00PM,NC,10:00PM,35.155616,10:00PM,10:00PM,True,False,10:00AM,False,10:00AM,10:00AM,10:00AM,50.085073821736934,(910)944-7205,True,-79.414355,10:00PM
106 North Odum Street,(910) 521-8448,10:00PM,J970025,10:00AM,,,10:00PM,Pembroke,10:00AM,28372,False,10:00AM,10:00PM,NC,10:00PM,34.684905,10:00PM,10:00PM,True,False,10:00AM,False,10:00AM,10:00AM,10:00AM,50.27902496651414,(910)521-8448,True,-79.199008,10:00PM
301 S. Poplar Street,(910) 862-2636,10:00PM,J970017,10:00AM,,,10:00PM,Elizabethtown,10:00AM,28337,False,10:00AM,10:00PM,NC,10:00PM,34.625904,10:00PM,10:00PM,True,False,10:00AM,False,10:00AM,10:00AM,10:00AM,53.544904827848605,(910)862-2636,True,-78.606579,10:00PM
704 Horner Boulevard,(888) 540-0558 Ext.3031,10:00PM,J120005,10:30AM,,,10:00PM,Sanford,10:30AM,27330,False,10:30AM,10:00PM,NC,10:00PM,35.47178,10:00PM,10:00PM,True,False,10:30AM,True,10:30AM,10:30AM,10:30AM,53.791742396673094,(919)775-5615,True,-79.17424,10:00PM
12300 State Highway 210,(888) 540-0558 Ext.3031,10:00PM,029411,7:00AM,,,10:00PM,Benson,7:00AM,27504,False,7:00AM,11:00PM,NC,11:00PM,35.517081,10:00PM,10:00PM,True,False,7:00AM,False,7:00AM,7:00AM,7:00AM,59.090329636563986,(919)209-0405,False,-78.561932,10:00PM
1513 S. Main,(910) 276-1136,10:00PM,J970004,10:00AM,,,10:00PM,Laurinburg,10:00AM,28352,False,10:00AM,10:00PM,NC,10:00PM,34.758547,10:00PM,10:00PM,True,False,10:00AM,False,10:00AM,10:00AM,10:00AM,63.24735155298635,(910)276-1136,True,-79.472014,10:00PM
7112 G. B. Alford Highway,(888) 540-0558 Ext.3031,10:00PM,029354,7:00AM,Wal-Mart Pad,,10:00PM,Holly Springs,7:00AM,27540,False,7:00AM,10:00PM,NC,10:00PM,35.635926,10:00PM,10:00PM,True,False,7:00AM,False,7:00AM,7:00AM,7:00AM,64.99835477086488,(919)557-3801,False,-78.830916,10:00PM
2715 W. NC Highway 24,,10:00PM,H667020,10:30AM,,,10:00PM,Warsaw,10:30AM,28398,False,10:30AM,10:00PM,NC,10:00PM,34.993095,10:00PM,10:00PM,False,False,10:30AM,True,10:30AM,10:00AM,10:30AM,67.56774131789187,(910)293-3085,True,-78.139918,10:00PM
5530 North Carolina Highway 42,(888) 540-0558 Ext.3031,11:30PM,029404,7:00AM,,,11:00PM,Garner,7:00AM,27529,False,7:00AM,11:30PM,NC,11:30PM,35.605432,11:00PM,11:00PM,True,False,7:00AM,False,7:00AM,7:00AM,7:00AM,67.61716154704202,(919)773-2440,False,-78.567717,11:00PM
406 U.S. Highway 70 East,,10:00PM,H667015,10:30AM,,,10:00PM,Selma,10:30AM,27576,False,10:30AM,11:00PM,NC,11:00PM,35.520531,10:00PM,10:00PM,False,False,10:30AM,False,10:30AM,10:00AM,10:30AM,74.35564452243305,(919)965-9238,True,-78.293058,10:00PM
103 Highway 55 West,(252) 902-9103,1:00AM,E080062,10:00AM,,,12:00AM,Mount Olive,10:00AM,28365,False,10:00AM,1:00AM,NC,1:00AM,35.212084,12:00AM,12:00AM,True,False,10:00AM,False,10:00AM,10:00AM,10:00AM,76.09085098161864,(919)658-8331,True,-78.064645,12:00AM
11657 Highway 70 West,(888) 540-0558 Ext.3031,10:30PM,029403,7:00AM,,,10:30PM,Clayton,7:00AM,27520,False,7:00AM,10:30PM,NC,10:30PM,35.654304,10:30PM,10:30PM,True,False,7:00AM,False,7:00AM,7:00AM,7:00AM,76.2603288075659,(919)553-2934,False,-78.474698,10:30PM
1403 West Williams Blvd,(888) 540-0558 Ext.3031,10:00PM,J120103,10:30AM,,,10:00PM,Apex,10:30AM,27523,False,10:30AM,10:00PM,NC,10:00PM,35.75007,10:00PM,10:00PM,True,False,10:30AM,False,10:30AM,10:30AM,10:30AM,77.54812163568013,(919)303-7997,True,-78.87683,10:00PM
1599 US Highway 70 W,(888) 540-0558 Ext.3031,10:00PM,J120099,10:30AM,,,10:00PM,Garner,10:30AM,27529,False,10:30AM,10:30PM,NC,10:30PM,35.72511,10:00PM,10:00PM,True,False,10:30AM,False,10:30AM,10:30AM,10:30AM,77.61444732586133,(919)662-1003,True,-78.64879,10:00PM
1354 E. Broad St.,(910) 895-9581,10:00PM,J970014,10:00AM,,,10:00PM,Rockingham,10:00AM,28379,False,10:00AM,10:00PM,NC,10:00PM,34.920529,10:00PM,10:00PM,True,False,10:00AM,False,10:00AM,10:00AM,10:00AM,80.61837142413296,(910)895-9581,True,-79.74848,10:00PM
705 N. Powell Boulevard,(910) 642-3054,10:00PM,J970002,10:00AM,,,10:00PM,Whiteville,10:00AM,28472,False,10:00AM,10:00PM,NC,10:00PM,34.337781,10:00PM,10:00PM,True,False,10:00AM,False,10:00AM,10:00AM,10:00AM,80.98883509365884,(910)642-3054,True,-78.708793,10:00PM
63 Lowes Drive,(888) 540-0558 Ext.3031,10:00PM,029482,7:00AM,,,10:00PM,Pittsboro,7:00AM,27312,False,7:00AM,10:00PM,NC,10:00PM,35.745873,10:00PM,10:00PM,True,False,7:00AM,False,7:00AM,7:00AM,7:00AM,81.39412061799784,(919)545-8999,False,-79.166797,10:00PM
808 Highway 301 North,(843) 774-5402,10:00PM,J970007,10:00AM,,,10:00PM,Dillon,10:00AM,29536,False,10:00AM,10:00PM,SC,10:00PM,34.423188,10:00PM,10:00PM,True,False,10:00AM,False,10:00AM,10:00AM,10:00AM,82.96474021043063,(843)774-5402,True,-79.365812,10:00PM
1011 N Harrison Ave,(888) 540-0558 Ext.3031,10:00PM,029483,7:00AM,,,10:00PM,Cary,7:00AM,27513,False,7:00AM,10:00PM,NC,10:00PM,35.803464,10:00PM,10:00PM,True,False,7:00AM,False,7:00AM,7:00AM,7:00AM,83.92737784909043,(919)467-6318,False,-78.783392,10:00PM
3408 Poole Road,(888) 540-0558 Ext.3031,10:00PM,029410,7:00AM,,,10:00PM,Raleigh,7:00AM,27610,False,7:00AM,11:00PM,NC,11:00PM,35.768348,9:00PM,10:00PM,True,False,7:00AM,False,7:00AM,7:00AM,7:00AM,84.05215459610909,(919)212-2504,False,-78.579871,10:00PM
705 North Norwood Street,,10:00PM,H667018,10:30AM,,,10:00PM,Wallace,10:30AM,28466,False,10:30AM,11:00PM,NC,11:00PM,34.743345,10:00PM,10:00PM,False,False,10:30AM,False,10:30AM,10:00AM,10:30AM,87.50452578921353,(910)285-4992,True,-77.99609,10:00PM
700 East Ash Street,(252) 902-9103,10:00PM,E080057,10:00AM,,,10:00PM,Goldsboro,10:00AM,27530,False,10:00AM,11:00PM,NC,11:00PM,35.382619,10:00PM,10:00PM,True,False,10:00AM,False,10:00AM,10:00AM,10:00AM,88.98128691992902,(919)735-0424,True,-77.985983,10:00PM
809 Airport Blvd.,(888) 540-0558 Ext.3031,10:00PM,022040,7:00AM,,,10:00PM,Morrisville,7:00AM,27560,False,7:00AM,10:00PM,NC,10:00PM,35.856373,10:00PM,10:00PM,True,False,7:00AM,False,7:00AM,7:00AM,7:00AM,89.50005915642475,(919)380-8313,False,-78.824771,10:00PM
477 15-401 By Pass West,(843) 479-8015,10:00PM,J970023,10:00AM,,,10:00PM,Bennettsville,10:00AM,29512,False,10:00AM,10:00PM,SC,10:00PM,34.605183,10:00PM,10:00PM,True,False,10:00AM,False,10:00AM,10:00AM,10:00AM,89.64289571341601,(843)479-8015,True,-79.695294,10:00PM
7040 Highway 64  E.,(888) 540-0558 Ext.3031,10:00PM,J120031,10:30AM,,,10:00PM,Knightdale,10:30AM,27545,False,10:30AM,10:00PM,NC,10:00PM,35.79836,10:00PM,10:00PM,True,False,10:30AM,False,10:30AM,10:30AM,10:30AM,89.93775239591474,(919)266-4096,True,-78.4939,10:00PM
4040 Capital Blvd.,(888) 540-0558 Ext.3031,10:00PM,J120095,10:30AM,,,10:00PM,Raleigh,10:30AM,27604,False,10:30AM,10:00PM,NC,10:00PM,35.83612,10:00PM,10:00PM,True,False,10:30AM,False,10:30AM,10:30AM,10:30AM,91.17421624182421,(919)872-5356,True,-78.58143,10:00PM
1702 East 11th Street,(888) 540-0558 Ext.3031,10:00PM,029405,7:00AM,,,10:00PM,Siler City,7:00AM,27344,False,7:00AM,10:00PM,NC,10:00PM,35.7332,10:00PM,10:00PM,True,False,7:00AM,False,7:00AM,7:00AM,7:00AM,91.1784428048686,(919)742-4343,False,-79.439505,10:00PM
214 North Berkeley Boulevard,(252) 902-9103,10:00PM,E080061,10:00AM,,,10:00PM,Goldsboro,10:00AM,27534,False,10:00AM,11:00PM,NC,11:00PM,35.37258,10:00PM,10:00PM,True,False,10:00AM,False,10:00AM,10:00AM,10:00AM,91.58506077661114,(919)751-0874,True,-77.949394,10:00PM
5434 Six Forks Rd,(888) 540-0558 Ext.3031,10:00PM,029424,7:00AM,,,10:00PM,Raleigh,7:00AM,27609,False,7:00AM,11:00PM,NC,11:00PM,35.85553,10:00PM,10:00PM,True,False,7:00AM,False,7:00AM,7:00AM,7:00AM,91.81742971467959,(919)781-5458,False,-78.641441,10:00PM
6405 Falls Of Neuse Rd.,(888) 540-0558 Ext.3031,10:00PM,029409,7:00AM,,,10:00PM,Raleigh,7:00AM,27615,False,7:00AM,11:00PM,NC,11:00PM,35.870478,10:00PM,10:00PM,True,False,7:00AM,False,7:00AM,7:00AM,7:00AM,93.85884988805536,(919)872-6902,False,-78.621778,10:00PM
1110 W. NC 54,(888) 540-0558 Ext.3031,10:00PM,029412,7:00AM,,,10:00PM,Durham,7:00AM,27707,False,7:00AM,10:00PM,NC,10:00PM,35.91988,10:00PM,10:00PM,True,False,7:00AM,False,7:00AM,7:00AM,7:00AM,96.69527556434441,(919)419-9428,False,-78.957413,10:00PM
1804 South Miami Blvd.,(888) 540-0558 Ext.3031,10:00PM,029407,7:00AM,,,10:00PM,Durham,7:00AM,27703,False,7:00AM,10:00PM,NC,10:00PM,35.945548,10:00PM,10:00PM,True,False,7:00AM,False,7:00AM,7:00AM,7:00AM,99.3499384436915,(919)957-0745,False,-78.838428,10:00PM
116 Hughes Boulevard,(888) 532-2283,11:00PM,G135207,10:30AM,,,11:00PM,Elizabeth City,10:30AM,27909,False,10:30AM,11:00PM,NC,11:00PM,36.30235,11:00PM,11:00PM,True,False,10:30AM,False,10:30AM,10:30AM,10:30AM,1.4373400850273554,(252)335-5050,True,-76.238209,11:00PM
139 Battlefield Blvd. S,(888) 532-2283,11:30PM,G135122,10:30AM,,,11:30PM,Chesapeake,10:30AM,23322,False,10:30AM,11:30PM,VA,11:30PM,36.718761,11:30PM,11:30PM,True,False,10:30AM,False,10:30AM,10:30AM,10:30AM,47.17618264803623,(757)482-2088,True,-76.239281,11:30PM
2212 S. Military Hwy.,(888) 532-2283,11:00PM,G135127,10:30AM,,,11:00PM,Chesapeake,10:30AM,23320,False,10:30AM,11:30PM,VA,11:30PM,36.777458,11:00PM,11:00PM,True,False,10:30AM,False,10:30AM,10:30AM,10:30AM,53.71342334616171,(757)543-1939,True,-76.268311,11:00PM
5004 George Washington Hwy.,(888) 532-2283,11:30PM,G135152,10:30AM,,,11:30PM,Portsmouth,10:30AM,23702,False,10:30AM,12:30AM,VA,12:30AM,36.794405,11:30PM,11:30PM,True,False,10:30AM,False,10:30AM,10:30AM,10:30AM,55.9986923526074,(757)487-0742,True,-76.327949,11:30PM
2072 S. Independence Blvd.,(888) 532-2283,11:00PM,G135154,10:30AM,,,11:00PM,Virginia Beach,10:30AM,23453,False,10:00AM,11:30PM,VA,11:30PM,36.790033,11:00PM,11:00PM,True,False,10:30AM,False,10:30AM,10:30AM,10:30AM,56.488642240069545,(757)416-9230,True,-76.111187,11:00PM
1300 Fordham Dr.,(888) 532-2283,10:00PM,G135129,10:30AM,,,10:00PM,Virginia Beach,10:30AM,23464,False,10:30AM,10:00PM,VA,10:00PM,36.800004,10:00PM,10:00PM,True,False,10:30AM,False,10:30AM,10:30AM,10:30AM,56.61554253130173,(757)424-7972,True,-76.17424,10:00PM
915 N. Main,(844) 255-9219,10:00PM,J718111,10:30AM,,,10:00PM,Suffolk,10:30AM,23434,False,10:30AM,11:00PM,VA,11:00PM,36.743282,10:00PM,10:00PM,True,False,10:30AM,False,10:30AM,10:30AM,10:30AM,58.078665435749556,(757)934-8606,True,-76.583763,10:00PM
2800 Airline Blvd.,(888) 532-2283,11:00PM,G135123,10:30AM,,,11:30PM,Portsmouth,10:30AM,23701,False,10:30AM,11:30PM,VA,11:30PM,36.810731,11:00PM,11:00PM,True,False,10:30AM,False,10:30AM,10:30AM,10:30AM,58.290844674795515,(757)488-9523,True,-76.365265,11:00PM
6544 Indian River Rd.,(888) 532-8883,1:00AM,G135121,10:30AM,,,1:00AM,Virginia Beach,10:30AM,23464,False,10:30AM,2:00AM,VA,2:00AM,36.818314,1:00AM,1:00AM,True,False,10:30AM,False,10:30AM,10:30AM,10:30AM,58.31311151046685,(757)420-9516,True,-76.217104,1:00AM
1660 General Booth Blvd.,(888) 532-2283,10:30PM,G135134,10:30AM,,,10:30PM,Virginia Beach,10:30AM,23454,False,10:30AM,10:30PM,VA,10:30PM,36.783012,10:30PM,10:30PM,True,False,10:30AM,False,10:30AM,10:30AM,10:30AM,58.73827143673305,(757)721-4343,True,-76.000573,10:30PM
4253 Holland Rd.,(888) 532-2283,10:30PM,G135128,10:30AM,,,10:30PM,Virginia Beach,10:30AM,23452,False,10:30AM,10:30PM,VA,10:30PM,36.819673,10:30PM,10:30PM,True,False,10:30AM,False,10:30AM,10:30AM,10:30AM,59.529255228375746,(757)495-8343,True,-76.121018,10:30PM
440 Chestnut Street,(888) 532-2283,10:00PM,G135155,10:30AM,,,10:00PM,Portsmouth,10:30AM,23704,False,10:30AM,10:00PM,VA,10:00PM,36.836534,10:00PM,10:00PM,True,False,10:30AM,False,10:30AM,10:30AM,10:30AM,60.47994475847998,(757)393-2752,True,-76.308719,10:00PM
3381 Virginia Beach Blvd.,(888) 532-2283,10:00PM,G135137,10:30AM,,,10:00PM,Virginia Beach,10:30AM,23452,False,10:30AM,10:00PM,VA,10:00PM,36.841287,10:00PM,10:00PM,True,False,10:30AM,False,10:30AM,10:30AM,10:30AM,62.47059325526484,(757)463-8246,True,-76.089823,10:00PM
556 Newtown Rd.,(888) 532-2283,10:00PM,G135144,10:30AM,,,10:00PM,Virginia Beach,10:30AM,23462,False,10:30AM,10:00PM,VA,10:00PM,36.858734,10:00PM,10:00PM,True,False,10:30AM,False,10:30AM,10:30AM,10:30AM,63.08962664004832,(757)490-9727,True,-76.175585,10:00PM
1716 Monticello Ave.,(888) 532-2283,10:00PM,G135132,10:30AM,,,10:00PM,Norfolk,10:30AM,23517,False,10:30AM,10:00PM,VA,10:00PM,36.864712,10:00PM,10:00PM,True,False,10:30AM,False,10:30AM,10:30AM,10:30AM,63.46507511650352,(757)622-4811,True,-76.284799,10:00PM
1263 N. Military Highway,(888) 532-2283,10:30PM,G135153,10:30AM,,,10:30PM,Norfolk,10:30AM,23502,False,10:30AM,10:30PM,VA,10:30PM,36.86645,10:30PM,10:30PM,True,False,10:30AM,False,10:30AM,10:30AM,10:30AM,63.685691723077724,(757)892-6310,True,-76.2113,10:30PM
860 Highway 64 East,(855) 453-2669,10:00PM,H667003,10:30AM,,,10:00PM,Plymouth,10:30AM,27962,False,10:30AM,11:00PM,NC,11:00PM,35.86299,10:00PM,10:00PM,True,False,10:30AM,False,10:30AM,10:00AM,10:30AM,64.5481413551521,(252)793-4499,True,-76.731352,10:00PM
1500-10 E. Memorial Drive,(888) 532-2283,10:30PM,G135208,10:30AM,,,10:30PM,Ahoskie,10:30AM,27910,False,10:30AM,11:00PM,NC,11:00PM,36.272518,10:30PM,10:30PM,True,False,10:30AM,False,10:30AM,10:30AM,10:30AM,64.6234290830542,(252)332-5297,True,-76.971497,10:30PM
3148 Western Branch Blvd.,(888) 532-2283,11:00PM,G135160,10:30AM,,,11:00PM,Chesapeake,10:30AM,23321,False,10:30AM,11:00PM,VA,11:00PM,36.863588,11:00PM,11:00PM,True,False,10:30AM,False,10:30AM,10:30AM,10:30AM,64.7192200138773,(757)484-1429,True,-76.403649,11:00PM
1010 Independence Blvd.,(888) 532-2283,10:00PM,G135162,10:30AM,,,10:00PM,Virginia Beach,10:30AM,23455,False,10:30AM,10:00PM,VA,10:00PM,36.872462,10:00PM,10:00PM,True,False,10:30AM,False,10:30AM,10:30AM,10:30AM,65.1044263453568,(757)460-2080,True,-76.133661,10:00PM
801 First Colonial Rd.,(888) 532-2283,10:00PM,G135157,10:30AM,,,10:00PM,Virginia Beach,10:30AM,23451,False,10:30AM,10:00PM,VA,10:00PM,36.853259,10:00PM,10:00PM,True,False,10:30AM,False,10:30AM,10:30AM,10:30AM,65.36317890618996,(757)491-7417,True,-76.023342,10:00PM
3690 Sewells Point Road,(888) 532-2283,1:00AM,G135159,10:30AM,,,12:00AM,Norfolk,10:30AM,23513,False,10:30AM,12:00AM,VA,1:00AM,36.889671,12:00AM,12:00AM,True,False,10:30AM,False,10:30AM,10:30AM,10:30AM,66.1785882360732,(757)853-3221,True,-76.238289,12:00AM
216 E. Little Creek Road,(888) 532-2283,10:00PM,G135163,10:30AM,,,10:00PM,Norfolk,10:30AM,23505,False,10:30AM,10:00PM,VA,10:00PM,36.915914,10:00PM,10:00PM,True,False,10:30AM,False,10:30AM,10:30AM,10:30AM,69.10638072852386,(757)587-3258,True,-76.269439,10:00PM
7320 S. Virginia Dare Trail,,9:00PM,034016,10:00AM,,,9:00PM,Nags Head,10:00AM,27959,False,10:00AM,9:00PM,NC,9:00PM,35.90715,9:00PM,9:00PM,False,False,10:00AM,False,10:00AM,10:00AM,10:00AM,72.79768130196274,(252)441-3028,False,-75.5979,9:00PM
199 W. Ocean View Ave.,(888) 532-2283,12:00AM,G135136,10:30AM,,,12:00AM,Norfolk,10:30AM,23503,False,10:30AM,12:00AM,VA,12:00AM,36.955807,12:00AM,12:00AM,True,False,10:30AM,False,10:30AM,10:30AM,10:30AM,73.52304323362245,(757)588-8604,True,-76.253272,12:00AM
1290 Armory Drive,(844) 255-9219,10:00PM,J718254,7:00AM,,,10:00PM,Franklin,7:00AM,23851,False,7:00AM,11:00PM,VA,11:00PM,36.670486,10:00PM,10:00PM,True,False,7:00AM,False,7:00AM,7:00AM,7:00AM,74.85074979605876,(757)569-9105,False,-76.945578,10:00PM
1101 W. Pembroke Ave.,(888) 532-2283,11:00PM,G135126,10:30AM,,,11:00PM,Hampton,10:30AM,23661,False,10:30AM,11:30PM,VA,11:30PM,37.02595,11:00PM,11:00PM,True,False,10:30AM,False,10:30AM,10:30AM,10:30AM,81.95383372032862,(757)722-0182,True,-76.364887,11:00PM
5010 Mercury Blvd.,(888) 532-2283,11:00PM,G135135,10:30AM,,,11:00PM,Newport News,10:30AM,23605,False,10:30AM,11:00PM,VA,11:00PM,37.021211,11:00PM,11:00PM,True,False,10:30AM,False,10:30AM,10:30AM,10:30AM,82.56687850395505,(757)827-3246,True,-76.441759,11:00PM
1603 E. Pembroke Ave.,(888) 532-2283,1:00AM,G135124,10:30AM,,,12:00AM,Hampton,10:30AM,23663,False,10:30AM,12:00AM,VA,1:00AM,37.037979,12:00AM,12:00AM,True,False,10:30AM,False,10:30AM,10:30AM,10:30AM,82.85246644265851,(757)723-3756,True,-76.314346,12:00AM
207 W. Mercury Blvd.,(888) 532-2283,10:00PM,G135143,10:30AM,,,10:00PM,Hampton,10:30AM,23669,False,10:30AM,10:30PM,VA,10:30PM,37.043328,10:00PM,10:00PM,True,False,10:30AM,False,10:30AM,10:30AM,10:30AM,83.80197420932046,(757)723-6489,True,-76.358258,10:00PM
746 J Clyde Morris Blvd.,(888) 532-2283,1:00AM,G135164,10:30AM,,,12:00AM,Newport News,10:30AM,23601,False,10:30AM,12:00AM,VA,1:00AM,37.078328,12:00AM,12:00AM,True,False,10:30AM,False,10:30AM,10:30AM,10:30AM,89.17876660012243,(757)599-9685,True,-76.463343,12:00AM
1471 Washington Street,(252) 531-0662,11:00PM,E080094,10:00AM,,,11:00PM,Williamston,10:00AM,27892,False,10:00AM,12:00AM,NC,12:00AM,35.835243,11:00PM,11:00PM,True,False,10:00AM,False,10:00AM,10:00AM,10:00AM,89.29612823901056,(252)792-7211,True,-77.065932,11:00PM
12630 Warwick Blvd.,(888) 532-2283,11:00PM,G135130,10:30AM,,,11:00PM,Newport News,10:30AM,23606,False,10:30AM,11:30PM,VA,11:30PM,37.08535,11:00PM,11:00PM,True,False,10:30AM,False,10:30AM,10:30AM,10:30AM,90.65487615682223,(757)930-4432,True,-76.498573,11:00PM
12104 Jefferson Ave.,(888) 532-2283,10:30PM,G135131,10:30AM,,,10:30PM,Newport News,10:30AM,23602,False,10:30AM,11:00PM,VA,11:00PM,37.105714,10:30PM,10:30PM,True,False,10:30AM,True,10:30AM,10:30AM,10:30AM,92.75476113395005,(757)249-1610,True,-76.49394,10:30PM
15496 Warwick Blvd.,(888) 532-2283,10:00PM,G135133,10:30AM,,,10:00PM,Newport News,10:30AM,23608,False,10:30AM,10:30PM,VA,10:30PM,37.158753,10:00PM,10:00PM,True,False,10:30AM,False,10:30AM,10:30AM,10:30AM,99.87149437068891,(757)887-1477,False,-76.556523,10:00PM
1998 Stantonsburg Road,(252) 902-9148,11:00PM,E080063,10:00AM,,,11:00PM,Greenville,10:00AM,27834,False,10:00AM,12:00AM,NC,12:00AM,35.607227,11:00PM,11:00PM,True,False,10:00AM,False,10:00AM,10:00AM,10:00AM,2.881356144711775,(252)752-5377,True,-77.397518,11:00PM
2000 South East Greenville Boulevard,(252) 902-9148,10:00PM,E080060,10:00AM,,,10:00PM,Greenville,10:00AM,27858,False,10:00AM,11:00PM,NC,11:00PM,35.598028,10:00PM,10:00PM,True,False,10:00AM,False,10:00AM,10:00AM,10:00AM,3.1601071071381086,(252)752-5184,True,-77.336389,10:00PM
600 West Greenville Boulevard,(252) 902-9148,10:00PM,E080056,10:00AM,,,10:00PM,Greenville,10:00AM,27834,False,10:00AM,11:00PM,NC,11:00PM,35.573263,10:00PM,10:00PM,True,False,10:00AM,False,10:00AM,10:00AM,10:00AM,5.157417783801366,(252)756-6434,True,-77.396453,10:00PM
1510 Carolina Avenue,(855) 453-2669,10:00PM,H667002,10:30AM,,,10:00PM,Washington,10:30AM,27889,False,10:30AM,11:00PM,NC,11:00PM,35.563623,10:00PM,10:00PM,True,False,10:30AM,True,10:30AM,10:00AM,10:30AM,28.00246277696964,(252)946-1250,True,-77.062609,10:00PM
706 Western Boulevard,(252) 902-9148,10:00PM,E080054,10:00AM,,,10:00PM,Tarboro,10:00AM,27886,False,10:00AM,11:00PM,NC,11:00PM,35.89383,10:00PM,10:00PM,True,False,10:00AM,False,10:00AM,10:00AM,10:00AM,35.50542590828451,(252)823-6766,True,-77.55283,10:00PM
1471 Washington Street,(252) 531-0662,11:00PM,E080094,10:00AM,,,11:00PM,Williamston,10:00AM,27892,False,10:00AM,12:00AM,NC,12:00AM,35.835243,11:00PM,11:00PM,True,False,10:00AM,False,10:00AM,10:00AM,10:00AM,36.71570484094032,(252)792-7211,True,-77.065932,11:00PM
1613 West Vernon Avenue,(252) 902-9103,10:00PM,E080059,10:00AM,,,10:00PM,Kinston,10:00AM,28504,False,10:00AM,11:00PM,NC,11:00PM,35.271298,10:00PM,10:00PM,True,False,10:00AM,False,10:00AM,10:00AM,10:00AM,43.614487226925505,(252)527-6411,True,-77.603474,10:00PM
901 Highway 301,(252) 902-9103,11:00PM,E080064,10:00AM,,,11:00PM,Wilson,10:00AM,27893,False,10:00AM,12:00AM,NC,12:00AM,35.72121,11:00PM,11:00PM,True,False,10:00AM,False,10:00AM,10:00AM,10:00AM,49.07474527256904,(252)399-1118,True,-77.892908,11:00PM
1120 Fairview Road,(252) 442-3617,10:00PM,J970040,10:00AM,,,10:00PM,Rocky Mount,10:00AM,27801,False,10:00AM,10:00PM,NC,10:00PM,35.94312,10:00PM,10:00PM,True,False,10:00AM,False,10:00AM,10:00AM,10:00AM,52.098567182030635,(252)442-3617,True,-77.77576,10:00PM
1870 Tarboro Street  W.,(252) 902-9148,10:00PM,E080052,10:00AM,,,10:00PM,Wilson,10:00AM,27893,False,10:00AM,11:00PM,NC,11:00PM,35.719794,10:00PM,10:00PM,True,False,10:00AM,False,10:00AM,10:00AM,10:00AM,53.95704030700082,(252)237-4107,True,-77.948897,10:00PM
2108 Stone Rose Avenue,(252) 442-7390,10:00PM,J970041,10:00AM,,,10:00PM,Rocky Mount,10:00AM,27804,False,10:00AM,10:00PM,NC,10:00PM,35.960243,10:00PM,10:00PM,True,False,10:00AM,True,10:00AM,10:00AM,10:00AM,56.3452135816001,(252)442-7390,True,-77.820895,10:00PM
214 North Berkeley Boulevard,(252) 902-9103,10:00PM,E080061,10:00AM,,,10:00PM,Goldsboro,10:00AM,27534,False,10:00AM,11:00PM,NC,11:00PM,35.37258,10:00PM,10:00PM,True,False,10:00AM,False,10:00AM,10:00AM,10:00AM,59.15140339240894,(919)751-0874,True,-77.949394,10:00PM
2212 Neuse Boulevard,(855) 453-2669,10:00PM,H667004,10:30AM,,,10:00PM,New Bern,10:30AM,28560,False,10:30AM,11:00PM,NC,11:00PM,35.115674,10:00PM,10:00PM,True,False,10:30AM,False,10:30AM,10:00AM,10:30AM,61.36008614955729,(252)638-2815,True,-77.072269,10:00PM
700 East Ash Street,(252) 902-9103,10:00PM,E080057,10:00AM,,,10:00PM,Goldsboro,10:00AM,27530,False,10:00AM,11:00PM,NC,11:00PM,35.382619,10:00PM,10:00PM,True,False,10:00AM,False,10:00AM,10:00AM,10:00AM,61.65075553850166,(919)735-0424,True,-77.985983,10:00PM
860 Highway 64 East,(855) 453-2669,10:00PM,H667003,10:30AM,,,10:00PM,Plymouth,10:30AM,27962,False,10:30AM,11:00PM,NC,11:00PM,35.86299,10:00PM,10:00PM,True,False,10:30AM,False,10:30AM,10:00AM,10:30AM,63.71483255227797,(252)793-4499,True,-76.731352,10:00PM
1512 Highway 70 East,(855) 453-2669,10:00PM,H667005,10:30AM,,,10:00PM,New Bern,10:30AM,28560,False,10:30AM,11:00PM,NC,11:00PM,35.075528,10:00PM,10:00PM,True,False,10:30AM,True,10:30AM,10:00AM,10:30AM,67.16510861890559,(252)636-1807,True,-77.027622,10:00PM
103 Highway 55 West,(252) 902-9103,1:00AM,E080062,10:00AM,,,12:00AM,Mount Olive,10:00AM,28365,False,10:00AM,1:00AM,NC,1:00AM,35.212084,12:00AM,12:00AM,True,False,10:00AM,False,10:00AM,10:00AM,10:00AM,77.38580164360928,(919)658-8331,True,-78.064645,12:00AM
1500-10 E. Memorial Drive,(888) 532-2283,10:30PM,G135208,10:30AM,,,10:30PM,Ahoskie,10:30AM,27910,False,10:30AM,11:00PM,NC,11:00PM,36.272518,10:30PM,10:30PM,True,False,10:30AM,False,10:30AM,10:30AM,10:30AM,81.52964877108337,(252)332-5297,True,-76.971497,10:30PM
406 U.S. Highway 70 East,,10:00PM,H667015,10:30AM,,,10:00PM,Selma,10:30AM,27576,False,10:30AM,11:00PM,NC,11:00PM,35.520531,10:00PM,10:00PM,False,False,10:30AM,False,10:30AM,10:00AM,10:30AM,84.44414051366108,(919)965-9238,True,-78.293058,10:00PM
161 Wakelon Drive,(888) 540-0558 Ext.3031,10:00PM,029481,7:00AM,,,10:00PM,Zebulon,7:00AM,27597,False,7:00AM,11:00PM,NC,11:00PM,35.833469,10:00PM,10:00PM,True,False,7:00AM,False,7:00AM,7:00AM,7:00AM,89.07228892182218,(919)404-1701,False,-78.314827,10:00PM
107 Miller Blvd.,(855) 453-2669,10:00PM,H667001,10:30AM,,,10:00PM,Havelock,10:30AM,28532,False,10:30AM,11:00PM,NC,11:00PM,34.882558,10:00PM,10:00PM,True,False,10:30AM,True,10:30AM,10:00AM,10:30AM,91.11257042940662,(252)447-8144,True,-76.910878,10:00PM
91 Premier Boulevard,(252) 537-9101,10:00PM,J970042,10:00AM,,,10:00PM,Roanoke Rapids,10:00AM,27870,False,10:00AM,10:00PM,NC,10:00PM,36.430915,10:00PM,10:00PM,True,False,10:00AM,True,10:00AM,10:00AM,10:00AM,94.11707678258475,(252)537-9101,True,-77.634062,10:00PM
1207 North Marine Boulevard,(252) 902-9103,10:00PM,E080058,10:00AM,,,10:00PM,Jacksonville,10:00AM,28540,False,10:00AM,11:00PM,NC,11:00PM,34.765408,10:00PM,10:00PM,True,False,10:00AM,False,10:00AM,10:00AM,10:00AM,94.29244600480924,(910)455-1981,True,-77.409674,10:00PM
201 Western Boulevard,(252) 902-9103,10:00PM,E080053,10:00AM,,,10:00PM,Jacksonville,10:00AM,28546,False,10:00AM,11:00PM,NC,11:00PM,34.74947,10:00PM,10:00PM,True,False,10:00AM,False,10:00AM,10:00AM,10:00AM,95.9911783012804,(910)353-0396,True,-77.380589,10:00PM
2715 W. NC Highway 24,,10:00PM,H667020,10:30AM,,,10:00PM,Warsaw,10:30AM,28398,False,10:30AM,10:00PM,NC,10:00PM,34.993095,10:00PM,10:00PM,False,False,10:30AM,True,10:30AM,10:00AM,10:30AM,98.35601939915138,(910)293-3085,True,-78.139918,10:00PM
207 S. Bickett Boulevard,(919) 496-4919,9:00PM,J145004,10:30AM,,,9:00PM,Louisburg,10:30AM,27549,False,10:30AM,9:30PM,NC,9:30PM,36.092918,9:00PM,9:00PM,True,False,10:30AM,True,10:30AM,10:30AM,10:30AM,99.5382107337151,(919)496-4919,True,-78.298395,9:00PM
2526 Carolina Beach Road,(910) 763-5341,10:00PM,J970034,10:00AM,,,10:00PM,Wilmington,10:00AM,28401,False,10:00AM,10:00PM,NC,10:00PM,34.191975,10:00PM,10:00PM,True,False,10:00AM,False,10:00AM,10:00AM,10:00AM,4.890945152126703,(910)763-5341,True,-77.935109,10:00PM
6826 1/2 Market Street,(910) 796-6654,10:00PM,J970035,10:00AM,,,10:00PM,Wilmington,10:00AM,28405,False,10:00AM,10:00PM,NC,10:00PM,34.260573,10:00PM,10:00PM,True,False,10:00AM,False,10:00AM,10:00AM,10:00AM,7.617191048325443,(910)796-6654,True,-77.83041,10:00PM
104 Village Road,(910) 383-1510,10:00PM,J970027,10:00AM,,,10:00PM,Leland,10:00AM,28451,False,10:00AM,10:00PM,NC,10:00PM,34.233762,10:00PM,10:00PM,True,False,10:00AM,False,10:00AM,10:00AM,10:00AM,10.374416271797868,(910)383-1510,True,-77.996049,10:00PM
4921 Long Beach Road,,11:00PM,C119010,10:00AM,Oak Island Shopping Center,,11:00PM,Southport,10:00AM,28461,False,10:00AM,12:00AM,NC,12:00AM,33.950542,11:00PM,11:00PM,False,False,10:00AM,False,10:00AM,10:00AM,10:00AM,32.560626729956624,(910)457-6707,True,-78.049809,11:00PM
502 State Highway 53  E.,(855) 453-2669,10:00PM,H667007,10:30AM,,,10:00PM,Burgaw,10:30AM,28425,False,10:30AM,11:00PM,NC,11:00PM,34.560323,10:00PM,10:00PM,True,False,10:30AM,True,10:30AM,10:00AM,10:30AM,39.02130770820182,(910)259-0047,True,-77.918786,10:00PM
348 Whiteville Road NW,(910) 755-7888,10:00PM,J970038,10:00AM,,,10:00PM,Shallotte,10:00AM,28470,False,10:00AM,10:00PM,NC,10:00PM,33.973381,10:00PM,10:00PM,True,False,10:00AM,False,10:00AM,10:00AM,10:00AM,54.15753351695906,(910)755-7888,True,-78.400608,10:00PM
705 North Norwood Street,,10:00PM,H667018,10:30AM,,,10:00PM,Wallace,10:30AM,28466,False,10:30AM,11:00PM,NC,11:00PM,34.743345,10:00PM,10:00PM,False,False,10:30AM,False,10:30AM,10:00AM,10:30AM,60.102547152959644,(910)285-4992,True,-77.99609,10:00PM
1207 North Marine Boulevard,(252) 902-9103,10:00PM,E080058,10:00AM,,,10:00PM,Jacksonville,10:00AM,28540,False,10:00AM,11:00PM,NC,11:00PM,34.765408,10:00PM,10:00PM,True,False,10:00AM,False,10:00AM,10:00AM,10:00AM,75.63794156935556,(910)455-1981,True,-77.409674,10:00PM
201 Western Boulevard,(252) 902-9103,10:00PM,E080053,10:00AM,,,10:00PM,Jacksonville,10:00AM,28546,False,10:00AM,11:00PM,NC,11:00PM,34.74947,10:00PM,10:00PM,True,False,10:00AM,False,10:00AM,10:00AM,10:00AM,75.80337427958759,(910)353-0396,True,-77.380589,10:00PM
705 N. Powell Boulevard,(910) 642-3054,10:00PM,J970002,10:00AM,,,10:00PM,Whiteville,10:00AM,28472,False,10:00AM,10:00PM,NC,10:00PM,34.337781,10:00PM,10:00PM,True,False,10:00AM,False,10:00AM,10:00AM,10:00AM,76.84541765066899,(910)642-3054,True,-78.708793,10:00PM
301 S. Poplar Street,(910) 862-2636,10:00PM,J970017,10:00AM,,,10:00PM,Elizabethtown,10:00AM,28337,False,10:00AM,10:00PM,NC,10:00PM,34.625904,10:00PM,10:00PM,True,False,10:00AM,False,10:00AM,10:00AM,10:00AM,80.58366053675219,(910)862-2636,True,-78.606579,10:00PM
602 Highway 17,,11:00PM,H667027,10:30AM,,,11:00PM,North Myrtle Beach,10:30AM,29582,False,10:30AM,11:00PM,SC,11:00PM,33.824731,11:00PM,11:00PM,False,False,10:30AM,False,10:30AM,10:00AM,10:30AM,85.17874947352159,(843)272-3150,True,-78.685341,11:00PM
2715 W. NC Highway 24,,10:00PM,H667020,10:30AM,,,10:00PM,Warsaw,10:30AM,28398,False,10:30AM,10:00PM,NC,10:00PM,34.993095,10:00PM,10:00PM,False,False,10:30AM,True,10:30AM,10:00AM,10:30AM,90.06312322721034,(910)293-3085,True,-78.139918,10:00PM
5305 Broad Street,,10:00PM,H667029,10:30AM,,,10:00PM,Loris,10:30AM,29569,False,10:30AM,11:00PM,SC,11:00PM,34.063026,10:00PM,10:00PM,False,False,10:30AM,False,10:30AM,10:30AM,10:30AM,93.1887712864589,(843)756-4050,True,-78.883564,10:00PM
1112 Sunset Avenue,,10:00PM,H667010,10:30AM,,,10:00PM,Clinton,10:30AM,28328,False,10:30AM,11:00PM,NC,11:00PM,34.993125,10:00PM,10:00PM,False,False,10:30AM,True,10:30AM,10:00AM,10:30AM,96.52694208102372,(910)592-5778,True,-78.342852,10:00PM
